OBJECTID,the_geom,LandmarkNo,Name,Address,LargePhoto,Thumbnail,YearBuilt,Architect,Designer,Parcel,Designatio,PIMLink,Latitude,Longitude
1,MULTIPOINT ((-122.42698099999996 37.76430800000003)),1,MISSION SAN FRANCISCO DE ASIS,310-320 DOLORES ST,http://sfplanninggis.org/Preservation/Landmarks/Large/1.jpg,http://sfplanninggis.org/Preservation/Landmarks/Docs/1.jpg,1782-91,,,3566/001,http://sfplanninggis.org/docs/landmarks_and_districts/LM1.pdf,http://propertymap.sfplanning.org?search=3566/001,37.764308,-122.426981
2,MULTIPOINT ((-122.40572699999996 37.792831000000035)),2,OLD ST. MARY'S CHURCH,660-680 CALIFORNIA ST,http://sfplanninggis.org/Preservation/Landmarks/Large/2.jpg,http://sfplanninggis.org/Preservation/Landmarks/Docs/2.jpg,1853-54,CRAINE & ENGLAND,,0241/012,http://sfplanninggis.org/docs/landmarks_and_districts/LM2.pdf,http://propertymap.sfplanning.org?search=0241/012,37.792831,-122.405727
3,MULTIPOINT ((-122.40145899999999 37.793304000000035)),3,BANK OF CALIFORNIA,400 CALIFORNIA ST,http://sfplanninggis.org/Preservation/Landmarks/Large/3.jpg,http://sfplanninggis.org/Preservation/Landmarks/Docs/3.jpg,1906/1908,BLISS & FAVILLE,,0239/003,http://sfplanninggis.org/docs/landmarks_and_districts/LM3.pdf,http://propertymap.sfplanning.org?search=0239/003,37.793304,-122.401459
4,MULTIPOINT ((-122.403528 37.78554100000008)),4,SAINT PATRICK'S CHURCH & RECTORY,748 MISSION ST,http://sfplanninggis.org/Preservation/Landmarks/Large/4.jpg,http://sfplanninggis.org/Preservation/Landmarks/Docs/4.jpg,1872;ca.1926,G.P. CUMMINGS,,3706/068,http://sfplanninggis.org/docs/landmarks_and_districts/LM4.pdf,http://propertymap.sfplanning.org?search=3706/068,37.785541,-122.403528
5,MULTIPOINT ((-122.403528 37.78554100000008)),4,SAINT PATRICKS CATHEDRAL,748 MISSION STREET,http://sfplanninggis.org/Preservation/Landmarks/Large/4.jpg,http://sfplanninggis.org/Preservation/Landmarks/Docs/4.jpg,1872;ca.1926,G.P. CUMMINGS,,3706/068,http://sfplanninggis.org/docs/landmarks_and_districts/LM4.pdf,http://propertymap.sfplanning.org?search=3706/068,37.785541,-122.403528
6,MULTIPOINT ((-122.40770299999997 37.799000000000035)),5,ST. FRANCIS OF ASSISI CHURCH,620-624 VALLEJO ST,http://sfplanninggis.org/Preservation/Landmarks/Large/5.jpg,http://sfplanninggis.org/Preservation/Landmarks/Docs/5.jpg,1857-60,,,0131/009,http://sfplanninggis.org/docs/landmarks_and_districts/LM5.pdf,http://propertymap.sfplanning.org?search=0131/009,37.799,-122.407703
7,MULTIPOINT ((-122.43791699999997 37.78101600000008)),6,OLD ST PATRICK'S CHURCH,1820 EDDY ST,http://sfplanninggis.org/Preservation/Landmarks/Large/6.jpg,http://sfplanninggis.org/Preservation/Landmarks/Docs/6.jpg,1854,,,1127/007A,http://sfplanninggis.org/docs/landmarks_and_districts/LM6.pdf,http://propertymap.sfplanning.org?search=1127/007A,37.781016,-122.437917
8,MULTIPOINT ((-122.39276099999995 37.79332000000005)),7,AUDIFFRED BUILDING,1-21 MISSION ST,http://sfplanninggis.org/Preservation/Landmarks/Large/7.jpg,http://sfplanninggis.org/Preservation/Landmarks/Docs/7.jpg,1889,,,3715/001,http://sfplanninggis.org/docs/landmarks_and_districts/LM7.pdf,http://propertymap.sfplanning.org?search=3715/001,37.79332,-122.392761
9,MULTIPOINT ((-122.39017199999995 37.73500400000006)),8,,4701 03RD ST,http://sfplanninggis.org/Preservation/Landmarks/Large/8.jpg,http://sfplanninggis.org/Preservation/Landmarks/Docs/8.jpg,,,,5311/036,http://sfplanninggis.org/docs/landmarks_and_districts/LM8.pdf,http://propertymap.sfplanning.org?search=5311/036,37.735004,-122.390172
10,MULTIPOINT ((-122.39017199999995 37.73500400000006)),8,SOUTH S.F. OPERA HOUSE & MASONIC HALL,1601-4701 NEWCOMB AV,http://sfplanninggis.org/Preservation/Landmarks/Large/8.jpg,http://sfplanninggis.org/Preservation/Landmarks/Docs/8.jpg,,,,5311/036,http://sfplanninggis.org/docs/landmarks_and_districts/LM8.pdf,http://propertymap.sfplanning.org?search=5311/036,37.735004,-122.390172
11,MULTIPOINT ((-122.40309399999995 37.79606800000005)),9,LANGERMAN'S BUILDING/BELLI BUILDING,722 MONTGOMERY ST,http://sfplanninggis.org/Preservation/Landmarks/Large/9.jpg,http://sfplanninggis.org/Preservation/Landmarks/Docs/9.jpg,,,,0196/030,http://sfplanninggis.org/docs/landmarks_and_districts/LM9.pdf,http://propertymap.sfplanning.org?search=0196/030,37.796068,-122.403094
12,MULTIPOINT ((-122.40309399999995 37.79606800000005)),10,GENELLA BUILDING,728-730 MONTGOMERY ST,http://sfplanninggis.org/Preservation/Landmarks/Large/10.jpg,http://sfplanninggis.org/Preservation/Landmarks/Docs/10.jpg,1853-54,,,0196/030,http://sfplanninggis.org/docs/landmarks_and_districts/LM10.pdf,http://propertymap.sfplanning.org?search=0196/030,37.796068,-122.403094
13,MULTIPOINT ((-122.40309399999995 37.79606800000005)),10,GENELLA BUILDING/BELLI ANNEX,722-730 MONTGOMERY ST,http://sfplanninggis.org/Preservation/Landmarks/Large/10.jpg,http://sfplanninggis.org/Preservation/Landmarks/Docs/10.jpg,1853-54,,,0196/030,http://sfplanninggis.org/docs/landmarks_and_districts/LM10.pdf,http://propertymap.sfplanning.org?search=0196/030,37.796068,-122.403094
14,MULTIPOINT ((-122.40309399999995 37.79606800000005)),10,GENELLA BUILDING/BELLI ANNEX,728-730 MONTGOMERY ST,http://sfplanninggis.org/Preservation/Landmarks/Large/10.jpg,http://sfplanninggis.org/Preservation/Landmarks/Docs/10.jpg,1853-54,,,0196/030,http://sfplanninggis.org/docs/landmarks_and_districts/LM10.pdf,http://propertymap.sfplanning.org?search=0196/030,37.796068,-122.403094
15,MULTIPOINT ((-122.40270399999997 37.79613900000004)),11,HOTALING STABLES,32-42 HOTALING PL,http://sfplanninggis.org/Preservation/Landmarks/Large/11.jpg,http://sfplanninggis.org/Preservation/Landmarks/Docs/11.jpg,LATE 1860'S,,,0196/044,http://sfplanninggis.org/docs/landmarks_and_districts/LM11.pdf,http://propertymap.sfplanning.org?search=0196/044,37.796139,-122.402704
16,MULTIPOINT ((-122.40275499999996 37.79632000000004)),12,HOTALING BUILDING,451-461 JACKSON ST,http://sfplanninggis.org/Preservation/Landmarks/Large/12.jpg,http://sfplanninggis.org/Preservation/Landmarks/Docs/12.jpg,1866,,,0196/019,http://sfplanninggis.org/docs/landmarks_and_districts/LM12.pdf,http://propertymap.sfplanning.org?search=0196/019,37.79632,-122.402755
17,MULTIPOINT ((-122.40238299999999 37.79631400000005)),13,HOTALING ANNEX-EAST TREMONT STABLES,445 JACKSON ST,http://sfplanninggis.org/Preservation/Landmarks/Large/13.jpg,http://sfplanninggis.org/Preservation/Landmarks/Docs/13.jpg,1860'S,,,0196/027,http://sfplanninggis.org/docs/landmarks_and_districts/LM13.pdf,http://propertymap.sfplanning.org?search=0196/027,37.796314,-122.402383
18,MULTIPOINT ((-122.40238299999999 37.79631400000005)),13,"HOTALING ANNEX-EAST, TREMONT STABLES",443-445 JACKSON ST,http://sfplanninggis.org/Preservation/Landmarks/Large/13.jpg,http://sfplanninggis.org/Preservation/Landmarks/Docs/13.jpg,1860'S,,,0196/027,http://sfplanninggis.org/docs/landmarks_and_districts/LM13.pdf,http://propertymap.sfplanning.org?search=0196/027,37.796314,-122.402383
19,MULTIPOINT ((-122.40238299999999 37.79631400000005)),14,MEDICO-DENTAL BUILDING,435-441 JACKSON ST,http://sfplanninggis.org/Preservation/Landmarks/Large/14.jpg,http://sfplanninggis.org/Preservation/Landmarks/Docs/14.jpg,1861,,,0196/027,http://sfplanninggis.org/docs/landmarks_and_districts/LM14.pdf,http://propertymap.sfplanning.org?search=0196/027,37.796314,-122.402383
20,MULTIPOINT ((-122.40238299999999 37.79631400000005)),15,OLD GHIRARDELLI BLDG,415-431 JACKSON ST,http://sfplanninggis.org/Preservation/Landmarks/Large/15.jpg,http://sfplanninggis.org/Preservation/Landmarks/Docs/15.jpg,1853,,,0196/027,http://sfplanninggis.org/docs/landmarks_and_districts/LM15.pdf,http://propertymap.sfplanning.org?search=0196/027,37.796314,-122.402383
21,MULTIPOINT ((-122.40238299999999 37.79631400000005)),16,REGENCY HOUSE - GHIRARDELLI ANNEX,407 JACKSON ST,http://sfplanninggis.org/Preservation/Landmarks/Large/16.jpg,http://sfplanninggis.org/Preservation/Landmarks/Docs/16.jpg,1861,,,0196/027,http://sfplanninggis.org/docs/landmarks_and_districts/LM16.pdf,http://propertymap.sfplanning.org?search=0196/027,37.796314,-122.402383
22,MULTIPOINT ((-122.42743099999996 37.797799000000055)),17,COLONIAL DAMES OCTAGON HOUSE,2645 GOUGH ST,http://sfplanninggis.org/Preservation/Landmarks/Large/17.jpg,http://sfplanninggis.org/Preservation/Landmarks/Docs/17.jpg,1861,,,0544/001C,http://sfplanninggis.org/docs/landmarks_and_districts/LM17.pdf,http://propertymap.sfplanning.org?search=0544/001C,37.797799,-122.427431
23,MULTIPOINT ((-122.40193499999998 37.787941000000046)),18,"PALACE HOTEL, GARDEN COURTYARD",633-665 MARKET ST,http://sfplanninggis.org/Preservation/Landmarks/Large/18.jpg,http://sfplanninggis.org/Preservation/Landmarks/Docs/18.jpg,1909;'15-'26;'50,TROWBRIDGE & LIVINGSTON;GEORGE KELHAM,,3707/052,http://sfplanninggis.org/docs/landmarks_and_districts/LM18.pdf,http://propertymap.sfplanning.org?search=3707/052,37.787941,-122.401935
24,MULTIPOINT ((-122.40312499999999 37.79622800000004)),19,GOLDEN ERA BUILDING,730 MONTGOMERY ST,http://sfplanninggis.org/Preservation/Landmarks/Large/19.jpg,http://sfplanninggis.org/Preservation/Landmarks/Docs/19.jpg,1852,,,0196/015,http://sfplanninggis.org/docs/landmarks_and_districts/LM19.pdf,http://propertymap.sfplanning.org?search=0196/015,37.796228,-122.403125
25,MULTIPOINT ((-122.40301699999998 37.796343000000036)),20,HOTALING ANNEX WEST,463-473 JACKSON ST,http://sfplanninggis.org/Preservation/Landmarks/Large/20.jpg,http://sfplanninggis.org/Preservation/Landmarks/Docs/20.jpg,1860,,,0196/017,http://sfplanninggis.org/docs/landmarks_and_districts/LM20.pdf,http://propertymap.sfplanning.org?search=0196/017,37.796343,-122.403017
26,MULTIPOINT ((-122.41922599999998 37.779273000000046)),21,SAN FRANCISCO CITY HALL,400 VAN NESS AV,http://sfplanninggis.org/Preservation/Landmarks/Large/21.jpg,http://sfplanninggis.org/Preservation/Landmarks/Docs/21.jpg,1913/15,"JOHN BAKEWELL,JR & ARTHUR BROWN, JR.-EXTER.; LOUIS BOURGEOIS-INTERIOR.",,0787/001,http://sfplanninggis.org/docs/landmarks_and_districts/LM21.pdf,http://propertymap.sfplanning.org?search=0787/001,37.779273,-122.419226
27,MULTIPOINT ((-122.40304999999995 37.79662600000006)),22,SOLARI BLDG EAST(LARCO BUILDING),468-470 JACKSON ST,http://sfplanninggis.org/Preservation/Landmarks/Large/22.jpg,http://sfplanninggis.org/Preservation/Landmarks/Docs/22.jpg,1852,,,0175/010,http://sfplanninggis.org/docs/landmarks_and_districts/LM22.pdf,http://propertymap.sfplanning.org?search=0175/010,37.796626,-122.40305
28,MULTIPOINT ((-122.40304999999995 37.79662600000006)),23,SOLARI BLDG WEST,472 JACKSON ST,http://sfplanninggis.org/Preservation/Landmarks/Large/23.jpg,http://sfplanninggis.org/Preservation/Landmarks/Docs/23.jpg,1850-52,,,0175/010,http://sfplanninggis.org/docs/landmarks_and_districts/LM23.pdf,http://propertymap.sfplanning.org?search=0175/010,37.796626,-122.40305
29,MULTIPOINT ((-122.40255599999995 37.79668700000008)),24,YEON BLDG,432 JACKSON ST,http://sfplanninggis.org/Preservation/Landmarks/Large/24.jpg,http://sfplanninggis.org/Preservation/Landmarks/Docs/24.jpg,1855,,,0175/007,http://sfplanninggis.org/docs/landmarks_and_districts/LM24.pdf,http://propertymap.sfplanning.org?search=0175/007,37.796687,-122.402556
30,MULTIPOINT ((-122.40287399999994 37.79664800000006)),25,MOULINIE BLDG,458-460 JACKSON ST,http://sfplanninggis.org/Preservation/Landmarks/Large/25.jpg,http://sfplanninggis.org/Preservation/Landmarks/Docs/25.jpg,1850,,,0175/009,http://sfplanninggis.org/docs/landmarks_and_districts/LM25.pdf,http://propertymap.sfplanning.org?search=0175/009,37.796648,-122.402874
31,MULTIPOINT ((-122.40331999999995 37.79659200000003)),26,BANK OF LUCAS;TURNER & COMPANY,800-802 MONTGOMERY ST,http://sfplanninggis.org/Preservation/Landmarks/Large/26.jpg,http://sfplanninggis.org/Preservation/Landmarks/Docs/26.jpg,1853/1854,REUBEN CLARK,,0175/012,http://sfplanninggis.org/docs/landmarks_and_districts/LM26.pdf,http://propertymap.sfplanning.org?search=0175/012,37.796592,-122.40332
32,MULTIPOINT ((-122.40205199999997 37.79675000000003)),27,GROGAN-ATHERTON-LENT BLDG,701 SANSOME ST,http://sfplanninggis.org/Preservation/Landmarks/Large/27.jpg,http://sfplanninggis.org/Preservation/Landmarks/Docs/27.jpg,1859/1906,,,0175/004,http://sfplanninggis.org/docs/landmarks_and_districts/LM27.pdf,http://propertymap.sfplanning.org?search=0175/004,37.79675,-122.402052
33,MULTIPOINT ((-122.43093999999996 37.77801600000004)),28,OLD HOLY VIRGIN RUSSIAN ORTHODOX CHURCH,858-864 FULTON ST,http://sfplanninggis.org/Preservation/Landmarks/Large/28.jpg,http://sfplanninggis.org/Preservation/Landmarks/Docs/28.jpg,1880,NEWSOM BROTHERS,,0780/013,http://sfplanninggis.org/docs/landmarks_and_districts/LM28.pdf,http://propertymap.sfplanning.org?search=0780/013,37.778016,-122.43094
34,MULTIPOINT ((-122.46698999999995 37.76307500000007)),29,OLD FIRE HOUSE,1348 10TH AV,http://sfplanninggis.org/Preservation/Landmarks/Large/29.jpg,http://sfplanninggis.org/Preservation/Landmarks/Docs/29.jpg,1898,,,1764/031,http://sfplanninggis.org/docs/landmarks_and_districts/LM29.pdf,http://propertymap.sfplanning.org?search=1764/031,37.763075,-122.46699
35,MULTIPOINT ((-122.42292499999996 37.80585800000006)),30,GHIRARDELLI SQUARE,900 NORTH POINT ST,http://sfplanninggis.org/Preservation/Landmarks/Large/30.jpg,http://sfplanninggis.org/Preservation/Landmarks/Docs/30.jpg,1859,"W.MOOSER,SR-MAJOR BLDGS;WUSTER,BERNARDI & EMMONS-1962 BLDGS",,0452/003,http://sfplanninggis.org/docs/landmarks_and_districts/LM30.pdf,http://propertymap.sfplanning.org?search=0452/003,37.805858,-122.422925
36,MULTIPOINT ((-122.42639299999996 37.79661800000008)),31,BURR HOUSE,1772 VALLEJO ST,http://sfplanninggis.org/Preservation/Landmarks/Large/31.jpg,http://sfplanninggis.org/Preservation/Landmarks/Docs/31.jpg,1875,EDMUND M. WHARFF,,0552/029,http://sfplanninggis.org/docs/landmarks_and_districts/LM31.pdf,http://propertymap.sfplanning.org?search=0552/029,37.796618,-122.426393
37,MULTIPOINT ((-122.43806099999995 37.77276800000004)),32,ABNER PHELPS HOUSE,1111 OAK ST,http://sfplanninggis.org/Preservation/Landmarks/Large/32.jpg,http://sfplanninggis.org/Preservation/Landmarks/Docs/32.jpg,1850/51,,,1218/050,http://sfplanninggis.org/docs/landmarks_and_districts/LM32.pdf,http://propertymap.sfplanning.org?search=1218/050,37.772768,-122.438061
38,MULTIPOINT ((-122.40502099999998 37.79653500000006)),33,SENTINEL BUILDING/COLUMBUS TOWER,916-920 KEARNY STREET,http://sfplanninggis.org/Preservation/Landmarks/Large/33.jpg,http://sfplanninggis.org/Preservation/Landmarks/Docs/33.jpg,1905;1959,SALFIELD & KOHLBERG,,0176/013,http://sfplanninggis.org/docs/landmarks_and_districts/LM33.pdf,http://propertymap.sfplanning.org?search=0176/013,37.796535,-122.405021
39,MULTIPOINT ((-122.403438 37.79439300000007)),34,U.S. MINT & SUBTREASURY BUILDING,608-610 COMMERCIAL ST,http://sfplanninggis.org/Preservation/Landmarks/Large/34.jpg,http://sfplanninggis.org/Preservation/Landmarks/Docs/34.jpg,1852;1906,,,0227/048,http://sfplanninggis.org/docs/landmarks_and_districts/LM34.pdf,http://propertymap.sfplanning.org?search=0227/048,37.794393,-122.403438
40,MULTIPOINT ((-122.42167099999995 37.78252400000008)),35,STADTMULLER HOUSE,819 EDDY ST,http://sfplanninggis.org/Preservation/Landmarks/Large/35.jpg,http://sfplanninggis.org/Preservation/Landmarks/Docs/35.jpg,1880,P.R. SCHMIDT,,0743/015,http://sfplanninggis.org/docs/landmarks_and_districts/LM35.pdf,http://propertymap.sfplanning.org?search=0743/015,37.782524,-122.421671
41,MULTIPOINT ((-122.41668599999997 37.79825500000004)),36,FEUSIER OCTAGON HOUSE/KENNY RESIDENCE,1067 GREEN STREET,http://sfplanninggis.org/Preservation/Landmarks/Large/36.jpg,http://sfplanninggis.org/Preservation/Landmarks/Docs/36.jpg,1856,,,0126/022A,http://sfplanninggis.org/docs/landmarks_and_districts/LM36.pdf,http://propertymap.sfplanning.org?search=0126/022A,37.798255,-122.416686
42,MULTIPOINT ((-122.40303999999998 37.79023700000005)),37,HALLIDIE BUILDING,130-150 SUTTER ST,http://sfplanninggis.org/Preservation/Landmarks/Large/37.jpg,http://sfplanninggis.org/Preservation/Landmarks/Docs/37.jpg,1918,WILLIS POLK,,0288/030,http://sfplanninggis.org/docs/landmarks_and_districts/LM37.pdf,http://propertymap.sfplanning.org?search=0288/030,37.790237,-122.40304
43,MULTIPOINT ((-122.43290499999995 37.79412400000007)),38,BOURNE MANSION,2550 WEBSTER ST,http://sfplanninggis.org/Preservation/Landmarks/Large/38.jpg,http://sfplanninggis.org/Preservation/Landmarks/Docs/38.jpg,1896,WILLIS POLK,,0580/013,http://sfplanninggis.org/docs/landmarks_and_districts/LM38.pdf,http://propertymap.sfplanning.org?search=0580/013,37.794124,-122.432905
44,MULTIPOINT ((-122.42941699999994 37.76857800000005)),39,SAINT FRANCIS LUTHERAN CHURCH,152 CHURCH STREET,http://sfplanninggis.org/Preservation/Landmarks/Large/39.jpg,http://sfplanninggis.org/Preservation/Landmarks/Docs/39.jpg,1905,,,3537/010,http://sfplanninggis.org/docs/landmarks_and_districts/LM39.pdf,http://propertymap.sfplanning.org?search=3537/010,37.768578,-122.429417
45,MULTIPOINT ((-122.42341399999998 37.78504700000008)),40,FIRST UNITARIAN CHURCH,1187 FRANKLIN STREET,http://sfplanninggis.org/Preservation/Landmarks/Large/40.jpg,http://sfplanninggis.org/Preservation/Landmarks/Docs/40.jpg,1887,GEORGE W. PERCY,,0713/034,http://sfplanninggis.org/docs/landmarks_and_districts/LM40.pdf,http://propertymap.sfplanning.org?search=0713/034,37.785047,-122.423414
46,MULTIPOINT ((-122.42349099999996 37.78418000000005)),41,ST. MARKS LUTHERAN CHURCH,1111-1135 O'FARRELL STREET,http://sfplanninggis.org/Preservation/Landmarks/Large/41.jpg,http://sfplanninggis.org/Preservation/Landmarks/Docs/41.jpg,1894,HENRY GEILFUSS,,0720/028,http://sfplanninggis.org/docs/landmarks_and_districts/LM41.pdf,http://propertymap.sfplanning.org?search=0720/028,37.78418,-122.423491
47,MULTIPOINT ((-122.41161799999998 37.79008700000003)),42,DENNIS T. SULLIVAN MEMORIAL HOME,870 BUSH ST,http://sfplanninggis.org/Preservation/Landmarks/Large/42.jpg,http://sfplanninggis.org/Preservation/Landmarks/Docs/42.jpg,1921,"JOHN REID, JR.",,0274/010,http://sfplanninggis.org/docs/landmarks_and_districts/LM42.pdf,http://propertymap.sfplanning.org?search=0274/010,37.790087,-122.411618
48,MULTIPOINT ((-122.41192099999995 37.794782000000055)),43,CABLE CAR BARN AND POWER HOUSE,1200 MASON ST,http://sfplanninggis.org/Preservation/Landmarks/Large/43.jpg,http://sfplanninggis.org/Preservation/Landmarks/Docs/43.jpg,1885-87,,,0190/005,http://sfplanninggis.org/docs/landmarks_and_districts/LM43.pdf,http://propertymap.sfplanning.org?search=0190/005,37.794782,-122.411921
49,MULTIPOINT ((-122.40840999999995 37.79335200000003)),44,DONALDINA CAMERON HOUSE,920 SACRAMENTO ST,http://sfplanninggis.org/Preservation/Landmarks/Large/44.jpg,http://sfplanninggis.org/Preservation/Landmarks/Docs/44.jpg,1908,BENJAMIN GREER MCDOUGALL,,0224/008,http://sfplanninggis.org/docs/landmarks_and_districts/LM44.pdf,http://propertymap.sfplanning.org?search=0224/008,37.793352,-122.40841
50,MULTIPOINT ((-122.43589799999995 37.79291400000005)),45,LEALE HOUSE,2475 PACIFIC AV,http://sfplanninggis.org/Preservation/Landmarks/Large/45.jpg,http://sfplanninggis.org/Preservation/Landmarks/Docs/45.jpg,1860+/-,"ORIGINAL UNKNOWN, 1964 RENOVATION BY WILLARD RAND",,0587/018,http://sfplanninggis.org/docs/landmarks_and_districts/LM45.pdf,http://propertymap.sfplanning.org?search=0587/018,37.792914,-122.435898
51,"MULTIPOINT ((-122.41349699999995 37.797825000000046), (-122.41292199999998 37.79777500000006))",46,HOUSE OF THE FLAG,1652-1656 TAYLOR ST,http://sfplanninggis.org/Preservation/Landmarks/Large/46.jpg,http://sfplanninggis.org/Preservation/Landmarks/Docs/46.jpg,1860/1903,,,0149/032,http://sfplanninggis.org/docs/landmarks_and_districts/LM46.pdf,http://propertymap.sfplanning.org?search=0149/032,37.7978,-122.4132095
52,"MULTIPOINT ((-122.41349699999995 37.797825000000046), (-122.41292199999998 37.79777500000006))",46,HOUSE OF THE FLAG; OLD SHEPPARD-DAKIN HS,1652-1656 TAYLOR ST,http://sfplanninggis.org/Preservation/Landmarks/Large/46.jpg,http://sfplanninggis.org/Preservation/Landmarks/Docs/46.jpg,1860/1903,,,0149/032,http://sfplanninggis.org/docs/landmarks_and_districts/LM46.pdf,http://propertymap.sfplanning.org?search=0149/032,37.7978,-122.4132095
53,MULTIPOINT ((-122.42720299999996 37.771825000000035)),47,NIGHTINGALE HOUSE,201 BUCHANAN ST,http://sfplanninggis.org/Preservation/Landmarks/Large/47.jpg,http://sfplanninggis.org/Preservation/Landmarks/Docs/47.jpg,1882,JOHN MARQUIS,,0858/002,http://sfplanninggis.org/docs/landmarks_and_districts/LM47.pdf,http://propertymap.sfplanning.org?search=0858/002,37.771825,-122.427203
54,MULTIPOINT ((-122.42558699999995 37.77394300000003)),48,DIETLE RESIDENCE,294 PAGE ST,http://sfplanninggis.org/Preservation/Landmarks/Large/48.jpg,http://sfplanninggis.org/Preservation/Landmarks/Docs/48.jpg,1878;1885,HENRY GEILFUSS,,0839/017,http://sfplanninggis.org/docs/landmarks_and_districts/LM48.pdf,http://propertymap.sfplanning.org?search=0839/017,37.773943,-122.425587
55,MULTIPOINT ((-122.43465399999997 37.79663800000003)),49,SHERMAN HOUSE,2160 GREEN ST,http://sfplanninggis.org/Preservation/Landmarks/Large/49.jpg,http://sfplanninggis.org/Preservation/Landmarks/Docs/49.jpg,1876-77,,,0540/030,http://sfplanninggis.org/docs/landmarks_and_districts/LM49.pdf,http://propertymap.sfplanning.org?search=0540/030,37.796638,-122.434654
56,MULTIPOINT ((-122.45997099999994 37.77264300000007)),50,GOLDEN GATE CONSERVATORY,JOHN F. KENNEDY DR,http://sfplanninggis.org/Preservation/Landmarks/Large/50.jpg,http://sfplanninggis.org/Preservation/Landmarks/Docs/50.jpg,1878-79,,,1700/001,http://sfplanninggis.org/docs/landmarks_and_districts/LM50.pdf,http://propertymap.sfplanning.org?search=1700/001,37.772643,-122.459971
57,MULTIPOINT ((-122.43895499999996 37.795214000000044)),51,CASEBOLT HOUSE,2727 PIERCE ST,http://sfplanninggis.org/Preservation/Landmarks/Large/51.jpg,http://sfplanninggis.org/Preservation/Landmarks/Docs/51.jpg,1865,,,0560/005,http://sfplanninggis.org/docs/landmarks_and_districts/LM51.pdf,http://propertymap.sfplanning.org?search=0560/005,37.795214,-122.438955
58,MULTIPOINT ((-122.40364699999998 37.79601400000007)),52,TRANSAMERICA BLDG/OLD FUGAZI BANK,4 COLUMBUS AV,http://sfplanninggis.org/Preservation/Landmarks/Large/52.jpg,http://sfplanninggis.org/Preservation/Landmarks/Docs/52.jpg,1909,CHARLES PAFF,,0195/002,http://sfplanninggis.org/docs/landmarks_and_districts/LM52.pdf,http://propertymap.sfplanning.org?search=0195/002,37.796014,-122.403647
59,MULTIPOINT ((-122.42485899999997 37.790358000000026)),53,ISAAC WORMSER HOUSE/JOHN C. COLEMAN HOUS,1834 CALIFORNIA ST,http://sfplanninggis.org/Preservation/Landmarks/Large/53.jpg,http://sfplanninggis.org/Preservation/Landmarks/Docs/53.jpg,1876,,,0641/005,http://sfplanninggis.org/docs/landmarks_and_districts/LM53.pdf,http://propertymap.sfplanning.org?search=0641/005,37.790358,-122.424859
60,MULTIPOINT ((-122.424286 37.79043000000007)),54,EDWARD COLEMAN HOUSE,1701 FRANKLIN ST,http://sfplanninggis.org/Preservation/Landmarks/Large/54.jpg,http://sfplanninggis.org/Preservation/Landmarks/Docs/54.jpg,1896,SALFIELD & KOHLBERG,,0641/003,http://sfplanninggis.org/docs/landmarks_and_districts/LM54.pdf,http://propertymap.sfplanning.org?search=0641/003,37.79043,-122.424286
61,MULTIPOINT ((-122.42452099999997 37.79040100000003)),55,LILIENTHAL-ORVILLE PRATT HOUSE,1818-1820 CALIFORNIA ST,http://sfplanninggis.org/Preservation/Landmarks/Large/55.jpg,http://sfplanninggis.org/Preservation/Landmarks/Docs/55.jpg,1876,,,0641/004,http://sfplanninggis.org/docs/landmarks_and_districts/LM55.pdf,http://propertymap.sfplanning.org?search=0641/004,37.790401,-122.424521
62,MULTIPOINT ((-122.45275399999997 37.79042700000008)),56,ROOS RESIDENCE,3500 JACKSON ST,http://sfplanninggis.org/Preservation/Landmarks/Large/56.jpg,http://sfplanninggis.org/Preservation/Landmarks/Docs/56.jpg,1909,BERNARD MAYBECK,,0970/002,http://sfplanninggis.org/docs/landmarks_and_districts/LM56.pdf,http://propertymap.sfplanning.org?search=0970/002,37.790427,-122.452754
63,MULTIPOINT ((-122.42471199999994 37.79490100000004)),57,TALBOT-DUTTON HOUSE,1782 PACIFIC ST,http://sfplanninggis.org/Preservation/Landmarks/Large/57.jpg,http://sfplanninggis.org/Preservation/Landmarks/Docs/57.jpg,1875,,,0575/010,http://sfplanninggis.org/docs/landmarks_and_districts/LM57.pdf,http://propertymap.sfplanning.org?search=0575/010,37.794901,-122.424712
64,MULTIPOINT ((-122.43305799999996 37.80390100000005)),58,MERRYVALE ANTIQUES (S.F. GAS LIGHT CO.),3640 BUCHANAN ST,http://sfplanninggis.org/Preservation/Landmarks/Large/58.jpg,http://sfplanninggis.org/Preservation/Landmarks/Docs/58.jpg,1891/1893,"J.B. CROCKETT; RESTORATION (1958?) BY WURSTER, BERNARDI, EMMONS",,0459/003,http://sfplanninggis.org/docs/landmarks_and_districts/LM58.pdf,http://propertymap.sfplanning.org?search=0459/003,37.803901,-122.433058
65,MULTIPOINT ((-122.42017399999997 37.80717500000003)),59,HASLETT WAREHOUSE BUILDING,680 BEACH ST,http://sfplanninggis.org/Preservation/Landmarks/Large/59.jpg,http://sfplanninggis.org/Preservation/Landmarks/Docs/59.jpg,1907-09,"WM. MOOSER, SR.",,0010/002,http://sfplanninggis.org/docs/landmarks_and_districts/LM59.pdf,http://propertymap.sfplanning.org?search=0010/002,37.807175,-122.420174
66,MULTIPOINT ((-122.37555799999996 37.73153700000006)),60,HUNTERS POINT SPRINGS & ALBION BREWERY,881 INNES AV,http://sfplanninggis.org/Preservation/Landmarks/Large/60.jpg,http://sfplanninggis.org/Preservation/Landmarks/Docs/60.jpg,1855/1870,,,4654/013,http://sfplanninggis.org/docs/landmarks_and_districts/LM60.pdf,http://propertymap.sfplanning.org?search=4654/013,37.731537,-122.375558
67,MULTIPOINT ((-122.38907499999999 37.73134900000008)),61,SYLVESTER HOUSE,1556 REVERE AV,http://sfplanninggis.org/Preservation/Landmarks/Large/61.jpg,http://sfplanninggis.org/Preservation/Landmarks/Docs/61.jpg,1865-70,STEPHEN L. PIPER,,5340/006,http://sfplanninggis.org/docs/landmarks_and_districts/LM61.pdf,http://propertymap.sfplanning.org?search=5340/006,37.731349,-122.389075
68,MULTIPOINT ((-122.43823099999997 37.77274600000004)),62,OLD MISH HOUSE,1153 OAK ST,http://sfplanninggis.org/Preservation/Landmarks/Large/62.jpg,http://sfplanninggis.org/Preservation/Landmarks/Docs/62.jpg,1885,MCDOUGALL AND SONS,,1218/029,http://sfplanninggis.org/docs/landmarks_and_districts/LM62.pdf,http://propertymap.sfplanning.org?search=1218/029,37.772746,-122.438231
69,MULTIPOINT ((-122.38845599999996 37.73572800000005)),63,QUINN HOUSE,1562 MCKINNON AV,http://sfplanninggis.org/Preservation/Landmarks/Large/63.jpg,http://sfplanninggis.org/Preservation/Landmarks/Docs/63.jpg,1867,,,5295/031,http://sfplanninggis.org/docs/landmarks_and_districts/LM63.pdf,http://propertymap.sfplanning.org?search=5295/031,37.735728,-122.388456
70,MULTIPOINT ((-122.41139699999997 37.792260000000056)),64,OLD FLOOD MANSION -PACIFIC UNION CLUB,1000 CALIFORNIA ST,http://sfplanninggis.org/Preservation/Landmarks/Large/64.jpg,http://sfplanninggis.org/Preservation/Landmarks/Docs/64.jpg,1885-86,AUGUSTUS LAVER;WILLLIS POLK;GEORGE KELHAM,,0245/001,http://sfplanninggis.org/docs/landmarks_and_districts/LM64.pdf,http://propertymap.sfplanning.org?search=0245/001,37.79226,-122.411397
71,MULTIPOINT ((-122.42491899999999 37.788373000000036)),65,TRINITY EPISCOPAL CHURCH,1668 BUSH ST,http://sfplanninggis.org/Preservation/Landmarks/Large/65.jpg,http://sfplanninggis.org/Preservation/Landmarks/Docs/65.jpg,1892/1893,ARTHUR PAGE BROWN,,0665/015,http://sfplanninggis.org/docs/landmarks_and_districts/LM65.pdf,http://propertymap.sfplanning.org?search=0665/015,37.788373,-122.424919
72,MULTIPOINT ((-122.43062599999996 37.78766400000006)),66,STANYAN HOUSE,2006 BUSH ST,http://sfplanninggis.org/Preservation/Landmarks/Large/66.jpg,http://sfplanninggis.org/Preservation/Landmarks/Docs/66.jpg,1852,,,0661/033,http://sfplanninggis.org/docs/landmarks_and_districts/LM66.pdf,http://propertymap.sfplanning.org?search=0661/033,37.787664,-122.430626
73,MULTIPOINT ((-122.42703999999998 37.765904000000035)),67,TANFORAN COTTAGE,214 DOLORES ST,http://sfplanninggis.org/Preservation/Landmarks/Large/67.jpg,http://sfplanninggis.org/Preservation/Landmarks/Docs/67.jpg,1853,,,3557/003,http://sfplanninggis.org/docs/landmarks_and_districts/LM67.pdf,http://propertymap.sfplanning.org?search=3557/003,37.765904,-122.42704
74,MULTIPOINT ((-122.42703799999998 37.76579700000008)),68,TANFORAN COTTAGE,220 DOLORES ST,http://sfplanninggis.org/Preservation/Landmarks/Large/68.jpg,http://sfplanninggis.org/Preservation/Landmarks/Docs/68.jpg,1859,,,3557/003A,http://sfplanninggis.org/docs/landmarks_and_districts/LM68.pdf,http://propertymap.sfplanning.org?search=3557/003A,37.765797,-122.427038
75,MULTIPOINT ((-122.42495899999994 37.79325000000006)),69,HAAS-LILIENTHAL HOUSE,2007 FRANKLIN ST,http://sfplanninggis.org/Preservation/Landmarks/Large/69.jpg,http://sfplanninggis.org/Preservation/Landmarks/Docs/69.jpg,1885-1886,PETER R. SCHMIDT,,0600/002,http://sfplanninggis.org/docs/landmarks_and_districts/LM69.pdf,http://propertymap.sfplanning.org?search=0600/002,37.79325,-122.424959
76,MULTIPOINT ((-122.42708699999997 37.79007400000006)),70,ATHERTON HOUSE,1990 CALIFORNIA ST,http://sfplanninggis.org/Preservation/Landmarks/Large/70.jpg,http://sfplanninggis.org/Preservation/Landmarks/Docs/70.jpg,1881,MOORE BROS.,,0640/010,http://sfplanninggis.org/docs/landmarks_and_districts/LM70.pdf,http://propertymap.sfplanning.org?search=0640/010,37.790074,-122.427087
77,MULTIPOINT ((-122.42219099999994 37.78537800000004)),71,GOODMAN BUILDING,1117 GEARY ST,http://sfplanninggis.org/Preservation/Landmarks/Large/71.jpg,http://sfplanninggis.org/Preservation/Landmarks/Docs/71.jpg,1869,,,0714/018,http://sfplanninggis.org/docs/landmarks_and_districts/LM71.pdf,http://propertymap.sfplanning.org?search=0714/018,37.785378,-122.422191
78,MULTIPOINT ((-122.42219099999994 37.78537800000004)),71,GOODMAN BUILDING/EMERIC BUILDING,1117 GEARY ST,http://sfplanninggis.org/Preservation/Landmarks/Large/71.jpg,http://sfplanninggis.org/Preservation/Landmarks/Docs/71.jpg,1869,,,0714/018,http://sfplanninggis.org/docs/landmarks_and_districts/LM71.pdf,http://propertymap.sfplanning.org?search=0714/018,37.785378,-122.422191
79,MULTIPOINT ((-122.40588999999994 37.788265000000024)),72,V. C. MORRIS BUILDING,140 MAIDEN LN,http://sfplanninggis.org/Preservation/Landmarks/Large/72.jpg,http://sfplanninggis.org/Preservation/Landmarks/Docs/72.jpg,1911;1949,FRANK LLOYD WRIGHT,,0309/019,http://sfplanninggis.org/docs/landmarks_and_districts/LM72.pdf,http://propertymap.sfplanning.org?search=0309/019,37.788265,-122.40589
80,MULTIPOINT ((-122.41652999999997 37.751611000000025)),74,,1348 SOUTH VAN NESS AV,http://sfplanninggis.org/Preservation/Landmarks/Large/74.jpg,http://sfplanninggis.org/Preservation/Landmarks/Docs/74.jpg,,,,6518/006,http://sfplanninggis.org/docs/landmarks_and_districts/LM74.pdf,http://propertymap.sfplanning.org?search=6518/006,37.751611,-122.41653
81,MULTIPOINT ((-122.41652999999997 37.751611000000025)),74,FRANK M. STONE HOUSE,1348 SOUTH VAN NESS AV,http://sfplanninggis.org/Preservation/Landmarks/Large/74.jpg,http://sfplanninggis.org/Preservation/Landmarks/Docs/74.jpg,,,,6518/006,http://sfplanninggis.org/docs/landmarks_and_districts/LM74.pdf,http://propertymap.sfplanning.org?search=6518/006,37.751611,-122.41653
82,MULTIPOINT ((-122.42942799999997 37.79341500000004)),75,WHITTIER MANSION,2090 JACKSON ST,http://sfplanninggis.org/Preservation/Landmarks/Large/75.jpg,http://sfplanninggis.org/Preservation/Landmarks/Docs/75.jpg,1894-1896,EDWARD R. SWAIN & NEWTON J. THARP,,0591/007,http://sfplanninggis.org/docs/landmarks_and_districts/LM75.pdf,http://propertymap.sfplanning.org?search=0591/007,37.793415,-122.429428
83,MULTIPOINT ((-122.40179299999994 37.791337000000055)),76,MILLS BUILDING & TOWER,220-232 MONTGOMERY ST,http://sfplanninggis.org/Preservation/Landmarks/Large/76.jpg,http://sfplanninggis.org/Preservation/Landmarks/Docs/76.jpg,1891;1907;1931,BURNHAM & ROOT;WILLIS POLK;LEWIS HOBART,,0268/006,http://sfplanninggis.org/docs/landmarks_and_districts/LM76.pdf,http://propertymap.sfplanning.org?search=0268/006,37.791337,-122.401793
84,MULTIPOINT ((-122.40709999999996 37.78515500000003)),77,SAMUEL'S CLOCK,856 MARKET,http://sfplanninggis.org/Preservation/Landmarks/Large/77.jpg,http://sfplanninggis.org/Preservation/Landmarks/Docs/77.jpg,1915,,,0329/004,http://sfplanninggis.org/docs/landmarks_and_districts/LM77.pdf,http://propertymap.sfplanning.org?search=0329/004,37.785155,-122.4071
85,MULTIPOINT ((-122.44077299999998 37.73185100000006)),78,SUNNYSIDE CONSERVATORY,234-258 MONTEREY BL,http://sfplanninggis.org/Preservation/Landmarks/Large/78.jpg,http://sfplanninggis.org/Preservation/Landmarks/Docs/78.jpg,1891,,,6770/056,http://sfplanninggis.org/docs/landmarks_and_districts/LM78.pdf,http://propertymap.sfplanning.org?search=6770/056,37.731851,-122.440773
86,MULTIPOINT ((-122.44525799999997 37.75914100000006)),79,MILLER-JOOST HOUSE,3224 MARKET ST,http://sfplanninggis.org/Preservation/Landmarks/Large/79.jpg,http://sfplanninggis.org/Preservation/Landmarks/Docs/79.jpg,POSSIBLY 1867,,,2704/040,http://sfplanninggis.org/docs/landmarks_and_districts/LM79.pdf,http://propertymap.sfplanning.org?search=2704/040,37.759141,-122.445258
87,MULTIPOINT ((-122.43952699999994 37.759614000000056)),80,ALFRED E.(NOBBY) CLARKE MANSION,250 DOUGLASS ST,http://sfplanninggis.org/Preservation/Landmarks/Large/80.jpg,http://sfplanninggis.org/Preservation/Landmarks/Docs/80.jpg,1891,,,2700/001,http://sfplanninggis.org/docs/landmarks_and_districts/LM80.pdf,http://propertymap.sfplanning.org?search=2700/001,37.759614,-122.439527
88,MULTIPOINT ((-122.42815299999995 37.78748600000006)),81,OHABAI SHALOME/BUSH STREET TEMPLE,1881 BUSH ST,http://sfplanninggis.org/Preservation/Landmarks/Large/81.jpg,http://sfplanninggis.org/Preservation/Landmarks/Docs/81.jpg,1895,MOSES LYON,,0674/033,http://sfplanninggis.org/docs/landmarks_and_districts/LM81.pdf,http://propertymap.sfplanning.org?search=0674/033,37.787486,-122.428153
89,MULTIPOINT ((-122.41020899999995 37.78680700000007)),82,GEARY THEATER,415-333 GEARY ST,http://sfplanninggis.org/Preservation/Landmarks/Large/82.jpg,http://sfplanninggis.org/Preservation/Landmarks/Docs/82.jpg,1909,BLISS & FAVILLE,,0316/001A,http://sfplanninggis.org/docs/landmarks_and_districts/LM82.pdf,http://propertymap.sfplanning.org?search=0316/001A,37.786807,-122.410209
90,MULTIPOINT ((-122.41020899999995 37.78680700000007)),82,GEARY THEATER ANNEX,333 MASON ST,http://sfplanninggis.org/Preservation/Landmarks/Large/82.jpg,http://sfplanninggis.org/Preservation/Landmarks/Docs/82.jpg,1909,BLISS & FAVILLE,,0316/001A,http://sfplanninggis.org/docs/landmarks_and_districts/LM82.pdf,http://propertymap.sfplanning.org?search=0316/001A,37.786807,-122.410209
91,MULTIPOINT ((-122.45968799999997 37.78667100000007)),83,ST. JOHN'S PRESBYTERIAN CHURCH,25 LAKE ST,http://sfplanninggis.org/Preservation/Landmarks/Large/83.jpg,http://sfplanninggis.org/Preservation/Landmarks/Docs/83.jpg,1905;'07;'13;'49,GEORGE DODGE & J. WALTER DOLLIVER,,1361/001,http://sfplanninggis.org/docs/landmarks_and_districts/LM83.pdf,http://propertymap.sfplanning.org?search=1361/001,37.786671,-122.459688
92,MULTIPOINT ((-122.42093499999999 37.77905500000003)),84,WAR MEMORIAL COMPLEX,,http://sfplanninggis.org/Preservation/Landmarks/Large/84.jpg,http://sfplanninggis.org/Preservation/Landmarks/Docs/84.jpg,,,,0786A/001,http://sfplanninggis.org/docs/landmarks_and_districts/LM84.pdf,http://propertymap.sfplanning.org?search=0786A/001,37.779055,-122.420935
93,MULTIPOINT ((-122.42093499999999 37.77905500000003)),84,WAR MEMORIAL COMPLEX,401 VAN NESS AV,http://sfplanninggis.org/Preservation/Landmarks/Large/84.jpg,http://sfplanninggis.org/Preservation/Landmarks/Docs/84.jpg,,,,0786A/001,http://sfplanninggis.org/docs/landmarks_and_districts/LM84.pdf,http://propertymap.sfplanning.org?search=0786A/001,37.779055,-122.420935
94,MULTIPOINT ((-122.41718999999995 37.80373800000007)),85,S.F. ART INSTITUTE,800 CHESTNUT ST,http://sfplanninggis.org/Preservation/Landmarks/Large/85.jpg,http://sfplanninggis.org/Preservation/Landmarks/Docs/85.jpg,1926,BAKEWELL & BROWN,,0049/001,http://sfplanninggis.org/docs/landmarks_and_districts/LM85.pdf,http://propertymap.sfplanning.org?search=0049/001,37.803738,-122.41719
95,MULTIPOINT ((-122.40064499999994 37.758267000000046)),86,POTERO HILL NEIGHBORHOOD HOUSE,953 DEHARO ST,http://sfplanninggis.org/Preservation/Landmarks/Large/86.jpg,http://sfplanninggis.org/Preservation/Landmarks/Docs/86.jpg,1922,JULIA MORGAN,,4096/043,http://sfplanninggis.org/docs/landmarks_and_districts/LM86.pdf,http://propertymap.sfplanning.org?search=4096/043,37.758267,-122.400645
96,MULTIPOINT ((-122.40432999999996 37.78625500000004)),87,JESSIE ST. SUBSTATION,220-226 JESSIE ST,http://sfplanninggis.org/Preservation/Landmarks/Large/87.jpg,http://sfplanninggis.org/Preservation/Landmarks/Docs/87.jpg,1906-1909,WILLIS POLK,,3706/248,http://sfplanninggis.org/docs/landmarks_and_districts/LM87.pdf,http://propertymap.sfplanning.org?search=3706/248,37.786255,-122.40433
97,MULTIPOINT ((-122.44834599999996 37.802902000000074)),88,PALACE OF FINE ARTS,3301 LYON ST,http://sfplanninggis.org/Preservation/Landmarks/Large/88.jpg,http://sfplanninggis.org/Preservation/Landmarks/Docs/88.jpg,1914,BERNARD MAYBECK,,0916/002,http://sfplanninggis.org/docs/landmarks_and_districts/LM88.pdf,http://propertymap.sfplanning.org?search=0916/002,37.802902,-122.448346
98,MULTIPOINT ((-122.43836599999997 37.77330100000006)),89,"FIREHOUSE ENGINE CO.#2,TRUCK #6",1152 OAK ST,http://sfplanninggis.org/Preservation/Landmarks/Large/89.jpg,http://sfplanninggis.org/Preservation/Landmarks/Docs/89.jpg,1893,HENRIKSEN (BERNHARDT E.) & MAHONEY (WILLIAM C.),,1215/010,http://sfplanninggis.org/docs/landmarks_and_districts/LM89.pdf,http://propertymap.sfplanning.org?search=1215/010,37.773301,-122.438366
99,MULTIPOINT ((-122.39345899999995 37.79561000000007)),90,FERRY BUILDING,THE EMBARCADERO,http://sfplanninggis.org/Preservation/Landmarks/Large/90.jpg,http://sfplanninggis.org/Preservation/Landmarks/Docs/90.jpg,1898,"A. PAGE BROWN, EDWARD R. SWAIN",,9900/274,http://sfplanninggis.org/docs/landmarks_and_districts/LM90.pdf,http://propertymap.sfplanning.org?search=9900/274,37.79561,-122.393459
100,MULTIPOINT ((-122.40033999999997 37.79948600000006)),91,"GIBB SANBORN WAREHOUSE, TRINIDAD",855 FRONT ST,http://sfplanninggis.org/Preservation/Landmarks/Large/91.jpg,http://sfplanninggis.org/Preservation/Landmarks/Docs/91.jpg,1885;1899,,,0141/013,http://sfplanninggis.org/docs/landmarks_and_districts/LM91.pdf,http://propertymap.sfplanning.org?search=0141/013,37.799486,-122.40034
101,MULTIPOINT ((-122.40046499999994 37.799855000000036)),92,"GIBB-SANBORN WAREHOUSE, NORTH",901-925 FRONT ST,http://sfplanninggis.org/Preservation/Landmarks/Large/92.jpg,http://sfplanninggis.org/Preservation/Landmarks/Docs/92.jpg,1855,,,0136/003,http://sfplanninggis.org/docs/landmarks_and_districts/LM92.pdf,http://propertymap.sfplanning.org?search=0136/003,37.799855,-122.400465
102,MULTIPOINT ((-122.44353199999995 37.79069800000008)),93,FIREHOUSE ENGINE COMPANY NO 23,3022 WASHINGTON ST,http://sfplanninggis.org/Preservation/Landmarks/Large/93.jpg,http://sfplanninggis.org/Preservation/Landmarks/Docs/93.jpg,1893,HENRIKSEN (BERNHARDT E.) & MAHONEY (WILLIAM C.),,0981/013,http://sfplanninggis.org/docs/landmarks_and_districts/LM93.pdf,http://propertymap.sfplanning.org?search=0981/013,37.790698,-122.443532
103,MULTIPOINT ((-122.41465299999999 37.77933200000007)),94,ORPHEUM THEATER BUILDING,1182-1192 MARKET ST,http://sfplanninggis.org/Preservation/Landmarks/Large/94.jpg,http://sfplanninggis.org/Preservation/Landmarks/Docs/94.jpg,1926,B.MARCUS PRITECA,,0351/022,http://sfplanninggis.org/docs/landmarks_and_districts/LM94.pdf,http://propertymap.sfplanning.org?search=0351/022,37.779332,-122.414653
104,MULTIPOINT ((-122.45597199999997 37.78913600000004)),95,KOSHLAND HOUSE,3800 WASHINGTON ST,http://sfplanninggis.org/Preservation/Landmarks/Large/95.jpg,http://sfplanninggis.org/Preservation/Landmarks/Docs/95.jpg,1902-1904,FRANK S. VAN TREES,,0989/028,http://sfplanninggis.org/docs/landmarks_and_districts/LM95.pdf,http://propertymap.sfplanning.org?search=0989/028,37.789136,-122.455972
105,MULTIPOINT ((-122.46669399999996 37.77141500000005)),96,FRANCES SCOTT KEY MONUMENT,N.E. END CONCOURSE,http://sfplanninggis.org/Preservation/Landmarks/Large/96.jpg,http://sfplanninggis.org/Preservation/Landmarks/Docs/96.jpg,1887,,,1700/001,http://sfplanninggis.org/docs/landmarks_and_districts/LM96.pdf,http://propertymap.sfplanning.org?search=1700/001,37.771415,-122.466694
106,MULTIPOINT ((-122.41433099999995 37.79714500000006)),97,ATKINSON-ESCHER HOUSE,1032 BROADWAY,http://sfplanninggis.org/Preservation/Landmarks/Docs/SAMPLE_PHOTO.jpg,http://sfplanninggis.org/Preservation/Landmarks/Docs/SAMPLE_PHOTO.jpg,,,,0150/045,http://sfplanninggis.org/docs/landmarks_and_districts/LM97.pdf,http://propertymap.sfplanning.org?search=0150/045,37.797145,-122.414331
107,MULTIPOINT ((-122.41433099999995 37.79714500000006)),97,ATKINSON HOUSE,1032 BROADWAY,http://sfplanninggis.org/Preservation/Landmarks/Docs/SAMPLE_PHOTO.jpg,http://sfplanninggis.org/Preservation/Landmarks/Docs/SAMPLE_PHOTO.jpg,,,,0150/045,http://sfplanninggis.org/docs/landmarks_and_districts/LM97.pdf,http://propertymap.sfplanning.org?search=0150/045,37.797145,-122.414331
108,MULTIPOINT ((-122.43898499999995 37.78756000000004)),98,ORTMAN-SHUMATE HOUSE,1901 SCOTT ST,http://sfplanninggis.org/Preservation/Landmarks/Large/98.jpg,http://sfplanninggis.org/Preservation/Landmarks/Docs/98.jpg,1870,,,1027/003,http://sfplanninggis.org/docs/landmarks_and_districts/LM98.pdf,http://propertymap.sfplanning.org?search=1027/003,37.78756,-122.438985
109,MULTIPOINT ((-122.41169999999994 37.758845000000065)),99,SCHOENSTEIN & CO. PIPE ORGAN BLDG,3101 20TH ST,http://sfplanninggis.org/Preservation/Landmarks/Large/99.jpg,http://sfplanninggis.org/Preservation/Landmarks/Docs/99.jpg,1928,,,4084/001,http://sfplanninggis.org/docs/landmarks_and_districts/LM99.pdf,http://propertymap.sfplanning.org?search=4084/001,37.758845,-122.4117
110,MULTIPOINT ((-122.43469599999997 37.762013000000024)),100,CASTRO THEATER,429 CASTRO ST,http://sfplanninggis.org/Preservation/Landmarks/Large/100.jpg,http://sfplanninggis.org/Preservation/Landmarks/Docs/100.jpg,1922,TIMOTHY PFLUEGER,,3582/085,http://sfplanninggis.org/docs/landmarks_and_districts/LM100.pdf,http://propertymap.sfplanning.org?search=3582/085,37.762013,-122.434696
111,"MULTIPOINT ((-122.39009599999997 37.78278800000004), (-122.38980799999996 37.782407000000035))",101,ORIENTAL WAREHOUSE,620-650 01ST ST,http://sfplanninggis.org/Preservation/Landmarks/Large/101.jpg,http://sfplanninggis.org/Preservation/Landmarks/Docs/101.jpg,1867,,,3789/532,http://sfplanninggis.org/docs/landmarks_and_districts/LM101.pdf,http://propertymap.sfplanning.org?search=3789/532,37.7825975,-122.389952
112,"MULTIPOINT ((-122.39009599999997 37.78278800000004), (-122.38980799999996 37.782407000000035))",101,PACIFIC MAIL/ORIENTAL WAREHOUSE,622-650 FIRST ST,http://sfplanninggis.org/Preservation/Landmarks/Large/101.jpg,http://sfplanninggis.org/Preservation/Landmarks/Docs/101.jpg,1867,,,3789/532,http://sfplanninggis.org/docs/landmarks_and_districts/LM101.pdf,http://propertymap.sfplanning.org?search=3789/532,37.7825975,-122.389952
113,MULTIPOINT ((-122.402267 37.802861000000064)),102,ITALIAN SWISS COLONY WAREHOUSE BLDG,1265 BATTERY ST,http://sfplanninggis.org/Preservation/Landmarks/Large/102.jpg,http://sfplanninggis.org/Preservation/Landmarks/Docs/102.jpg,1903,HEMENWAY AND MILLER,,0084/008,http://sfplanninggis.org/docs/landmarks_and_districts/LM102.pdf,http://propertymap.sfplanning.org?search=0084/008,37.802861,-122.402267
114,MULTIPOINT ((-122.43511399999994 37.792674000000034)),103,CALVARY PRESBYTERIAN CHURCH,2501-2515 FILLMORE ST,http://sfplanninggis.org/Preservation/Landmarks/Large/103.jpg,http://sfplanninggis.org/Preservation/Landmarks/Docs/103.jpg,1900-1910,MCDOUGALL BROTHERS,,0587/027,http://sfplanninggis.org/docs/landmarks_and_districts/LM103.pdf,http://propertymap.sfplanning.org?search=0587/027,37.792674,-122.435114
115,MULTIPOINT ((-122.43511399999994 37.792674000000034)),103,CALVARY PRESBYTERIAN CHURCH,2515 FILLMORE ST,http://sfplanninggis.org/Preservation/Landmarks/Large/103.jpg,http://sfplanninggis.org/Preservation/Landmarks/Docs/103.jpg,1900-1910,MCDOUGALL BROTHERS,,0587/027,http://sfplanninggis.org/docs/landmarks_and_districts/LM103.pdf,http://propertymap.sfplanning.org?search=0587/027,37.792674,-122.435114
116,MULTIPOINT ((-122.43511399999994 37.792674000000034)),103,SEE 2501 FILLMORE,2428-2515 JACKSON ST,http://sfplanninggis.org/Preservation/Landmarks/Large/103.jpg,http://sfplanninggis.org/Preservation/Landmarks/Docs/103.jpg,1900-1910,MCDOUGALL BROTHERS,,0587/027,http://sfplanninggis.org/docs/landmarks_and_districts/LM103.pdf,http://propertymap.sfplanning.org?search=0587/027,37.792674,-122.435114
117,MULTIPOINT ((-122.40185699999995 37.80153300000006)),104,INDEPENDENT WOOD CO. BLDG. (CARGO WEST),1105 BATTERY ST,http://sfplanninggis.org/Preservation/Landmarks/Large/104.jpg,http://sfplanninggis.org/Preservation/Landmarks/Docs/104.jpg,1907,,,0107/008,http://sfplanninggis.org/docs/landmarks_and_districts/LM104.pdf,http://propertymap.sfplanning.org?search=0107/008,37.801533,-122.401857
118,MULTIPOINT ((-122.43126199999995 37.78032100000007)),105,MARKET STREET RAILWAY SUBSTATION,1140-1190 FILLMORE ST,http://sfplanninggis.org/Preservation/Landmarks/Large/105.jpg,http://sfplanninggis.org/Preservation/Landmarks/Docs/105.jpg,1902,,,0756/015,http://sfplanninggis.org/docs/landmarks_and_districts/LM105.pdf,http://propertymap.sfplanning.org?search=0756/015,37.780321,-122.431262
119,MULTIPOINT ((-122.43126199999995 37.78032100000007)),105,MARKET STREET RAILWAY SUBSTATION,1190 FILLMORE ST,http://sfplanninggis.org/Preservation/Landmarks/Large/105.jpg,http://sfplanninggis.org/Preservation/Landmarks/Docs/105.jpg,1902,,,0756/015,http://sfplanninggis.org/docs/landmarks_and_districts/LM105.pdf,http://propertymap.sfplanning.org?search=0756/015,37.780321,-122.431262
120,MULTIPOINT ((-122.41408299999995 37.79249200000004)),106,CHAMBORD APARTMENTS,1298 SACRAMENTO ST,http://sfplanninggis.org/Preservation/Landmarks/Large/106.jpg,http://sfplanninggis.org/Preservation/Landmarks/Docs/106.jpg,COMMISSN'D 1921,JAMES FRANCIS DUNN,,0221/125,http://sfplanninggis.org/docs/landmarks_and_districts/LM106.pdf,http://propertymap.sfplanning.org?search=0221/125,37.792492,-122.414083
121,MULTIPOINT ((-122.39284799999996 37.79226500000004)),107,RINCON ANNEX POST OFFICE,99 MISSION ST,http://sfplanninggis.org/Preservation/Landmarks/Large/107.jpg,http://sfplanninggis.org/Preservation/Landmarks/Docs/107.jpg,1939-1941,GILBERT STANLEY UNDERWOOD,,3716/021,http://sfplanninggis.org/docs/landmarks_and_districts/LM107.pdf,http://propertymap.sfplanning.org?search=3716/021,37.792265,-122.392848
122,MULTIPOINT ((-122.42057499999999 37.767817000000036)),108,STATE ARMORY & ARSENAL,1800 MISSION ST,http://sfplanninggis.org/Preservation/Landmarks/Large/108.jpg,http://sfplanninggis.org/Preservation/Landmarks/Docs/108.jpg,1909,WILLIAM L. & JOHN W. WOOLLETT,,3547/001,http://sfplanninggis.org/docs/landmarks_and_districts/LM108.pdf,http://propertymap.sfplanning.org?search=3547/001,37.767817,-122.420575
123,MULTIPOINT ((-122.40266699999995 37.79347300000006)),109,A. BOREL & COMPANY BLG,440 MONTGOMERY ST,http://sfplanninggis.org/Preservation/Landmarks/Large/109.jpg,http://sfplanninggis.org/Preservation/Landmarks/Docs/109.jpg,1908,ALBERT PISSIS,,0239/012,http://sfplanninggis.org/docs/landmarks_and_districts/LM109.pdf,http://propertymap.sfplanning.org?search=0239/012,37.793473,-122.402667
124,MULTIPOINT ((-122.40251699999999 37.79357100000004)),110,ITALIAN AMERICAN BANK,460 MONTGOMERY ST,http://sfplanninggis.org/Preservation/Landmarks/Large/110.jpg,http://sfplanninggis.org/Preservation/Landmarks/Docs/110.jpg,1907,"JOHN GALEN HOWARD, ARCH. & JOHN DEBO GALLOWAY, ENG.",,0239/014,http://sfplanninggis.org/docs/landmarks_and_districts/LM110.pdf,http://propertymap.sfplanning.org?search=0239/014,37.793571,-122.402517
125,MULTIPOINT ((-122.42392499999994 37.78276200000005)),111,FAMILY SERVICE AGENCY,1010 GOUGH ST,http://sfplanninggis.org/Preservation/Landmarks/Large/111.jpg,http://sfplanninggis.org/Preservation/Landmarks/Docs/111.jpg,1928,BERNARD MAYBECK,,0737/009,http://sfplanninggis.org/docs/landmarks_and_districts/LM111.pdf,http://propertymap.sfplanning.org?search=0737/009,37.782762,-122.423925
126,MULTIPOINT ((-122.42362699999995 37.782800000000066)),112,ROTHSCHILD HOUSE,964 EDDY ST,http://sfplanninggis.org/Preservation/Landmarks/Large/112.jpg,http://sfplanninggis.org/Preservation/Landmarks/Docs/112.jpg,1880,,,0737/007,http://sfplanninggis.org/docs/landmarks_and_districts/LM112.pdf,http://propertymap.sfplanning.org?search=0737/007,37.7828,-122.423627
127,MULTIPOINT ((-122.40330399999999 37.791311000000064)),113,S.F. CURB EXCHANGE,350 BUSH ST,http://sfplanninggis.org/Preservation/Landmarks/Large/113.jpg,http://sfplanninggis.org/Preservation/Landmarks/Docs/113.jpg,1923,MILLER AND PFLEUGER,,0269/028,http://sfplanninggis.org/docs/landmarks_and_districts/LM113.pdf,http://propertymap.sfplanning.org?search=0269/028,37.791311,-122.403304
128,MULTIPOINT ((-122.40304499999996 37.80442700000003)),114,BELT LINE RAILROAD ROUNDHOUSE COMPLEX,EMBARCADERO/LOMBARD,http://sfplanninggis.org/Preservation/Landmarks/Large/114.jpg,http://sfplanninggis.org/Preservation/Landmarks/Docs/114.jpg,1913/1918,,,0058/001,http://sfplanninggis.org/docs/landmarks_and_districts/LM114.pdf,http://propertymap.sfplanning.org?search=0058/001,37.804427,-122.403045
129,MULTIPOINT ((-122.43197699999996 37.78990700000003)),115,HEALTH SCIENCES LIBRARY,2395 SACRAMENTO ST,http://sfplanninggis.org/Preservation/Landmarks/Large/115.jpg,http://sfplanninggis.org/Preservation/Landmarks/Docs/115.jpg,1912,ALBERT PISSIS,,0637/016,http://sfplanninggis.org/docs/landmarks_and_districts/LM115.pdf,http://propertymap.sfplanning.org?search=0637/016,37.789907,-122.431977
130,MULTIPOINT ((-122.40555099999995 37.789483000000075)),117,HAMMERSMITH BUILDING,303 SUTTER ST,http://sfplanninggis.org/Preservation/Landmarks/Large/117.jpg,http://sfplanninggis.org/Preservation/Landmarks/Docs/117.jpg,1907,LANDSBRUGH & JOSEPH,,0294/001,http://sfplanninggis.org/docs/landmarks_and_districts/LM117.pdf,http://propertymap.sfplanning.org?search=0294/001,37.789483,-122.405551
131,MULTIPOINT ((-122.42223199999995 37.759817000000055)),118,B'NAI DAVID CHEVRA MIKVAH ISRAEL,3535 19TH ST,http://sfplanninggis.org/Preservation/Landmarks/Large/118.jpg,http://sfplanninggis.org/Preservation/Landmarks/Docs/118.jpg,1908/1925,F.W. DAKIN,,3597/063,http://sfplanninggis.org/docs/landmarks_and_districts/LM118.pdf,http://propertymap.sfplanning.org?search=3597/063,37.759817,-122.422232
132,MULTIPOINT ((-122.43008799999996 37.79060700000008)),119,CHAMBERS MANSION,2220-2222 SACRAMENTO ST,http://sfplanninggis.org/Preservation/Landmarks/Large/119.jpg,http://sfplanninggis.org/Preservation/Landmarks/Docs/119.jpg,1887/1917,J.C. MATTEWS AND SON,,0627/054,http://sfplanninggis.org/docs/landmarks_and_districts/LM119.pdf,http://propertymap.sfplanning.org?search=0627/054,37.790607,-122.430088
133,"MULTIPOINT ((-122.41429899999997 37.77356200000003), (-122.41418999999996 37.773142000000064))",120,ST. JOSEPH'S CHURCH,1401-240 HOWARD ST,http://sfplanninggis.org/Preservation/Landmarks/Large/120.jpg,http://sfplanninggis.org/Preservation/Landmarks/Docs/120.jpg,,,,3517/037,http://sfplanninggis.org/docs/landmarks_and_districts/LM120.pdf,http://propertymap.sfplanning.org?search=3517/037,37.773352,-122.4142445
134,"MULTIPOINT ((-122.41429899999997 37.77356200000003), (-122.41418999999996 37.773142000000064))",120,ST. JOSEPH'S CONVENT,240 10TH ST,http://sfplanninggis.org/Preservation/Landmarks/Large/120.jpg,http://sfplanninggis.org/Preservation/Landmarks/Docs/120.jpg,,,,3517/037,http://sfplanninggis.org/docs/landmarks_and_districts/LM120.pdf,http://propertymap.sfplanning.org?search=3517/037,37.773352,-122.4142445
135,MULTIPOINT ((-122.40505299999995 37.80305100000004)),121,JULIUS CASTLE,302-304 GREENWICH ST,http://sfplanninggis.org/Preservation/Landmarks/Large/121.jpg,http://sfplanninggis.org/Preservation/Landmarks/Docs/121.jpg,1923 & 1928,L/ MASTROPASQUA,,0079/004,http://sfplanninggis.org/docs/landmarks_and_districts/LM121.pdf,http://propertymap.sfplanning.org?search=0079/004,37.803051,-122.405053
136,MULTIPOINT ((-122.40903099999997 37.79365500000006)),122,CLAY STREET CENTER,965 CLAY ST,http://sfplanninggis.org/Preservation/Landmarks/Large/122.jpg,http://sfplanninggis.org/Preservation/Landmarks/Docs/122.jpg,1932,JULIA MORGAN,,0224/079,http://sfplanninggis.org/docs/landmarks_and_districts/LM122.pdf,http://propertymap.sfplanning.org?search=0224/079,37.793655,-122.409031
137,MULTIPOINT ((-122.42313499999995 37.757858000000056)),123,MCMULLEN RESIDENCE,827 GUERRERO,http://sfplanninggis.org/Preservation/Landmarks/Large/123.jpg,http://sfplanninggis.org/Preservation/Landmarks/Docs/123.jpg,1881,ENLARGED & ALTERED BY SAMUEL NEWSOM,,3608/076,http://sfplanninggis.org/docs/landmarks_and_districts/LM123.pdf,http://propertymap.sfplanning.org?search=3608/076,37.757858,-122.423135
138,MULTIPOINT ((-122.45838699999996 37.76828700000004)),124,SHARON (CHILDRENS)'BUILDING,GOLDEN GATE PARK,http://sfplanninggis.org/Preservation/Landmarks/Large/124.jpg,http://sfplanninggis.org/Preservation/Landmarks/Docs/124.jpg,1887-1888,PERCY AND HAMILTON,,1700/001,http://sfplanninggis.org/docs/landmarks_and_districts/LM124.pdf,http://propertymap.sfplanning.org?search=1700/001,37.768287,-122.458387
139,"MULTIPOINT ((-122.41579099999996 37.75118100000003), (-122.41578499999997 37.75111400000003))",125,HAVENS MANSION & CARRIAGE HOUSE,1381 SOUTH VAN NESS AV,http://sfplanninggis.org/Preservation/Landmarks/Large/125.jpg,http://sfplanninggis.org/Preservation/Landmarks/Docs/125.jpg,1884,CHARLES HAVENS,,6519/049,http://sfplanninggis.org/docs/landmarks_and_districts/LM125.pdf,http://propertymap.sfplanning.org?search=6519/049,37.7511475,-122.415788
140,"MULTIPOINT ((-122.41579099999996 37.75118100000003), (-122.41578499999997 37.75111400000003))",125,HAVENS MANSION AND CARRIAGE HOUSE,1381 SOUTH VAN NESS AV,http://sfplanninggis.org/Preservation/Landmarks/Large/125.jpg,http://sfplanninggis.org/Preservation/Landmarks/Docs/125.jpg,1884,CHARLES HAVENS,,6519/049,http://sfplanninggis.org/docs/landmarks_and_districts/LM125.pdf,http://propertymap.sfplanning.org?search=6519/049,37.7511475,-122.415788
141,MULTIPOINT ((-122.42437299999995 37.790666000000044)),126,BRANDENSTEIN (BRANSTEN) HOUSE,1735 FRANKLIN ST,http://sfplanninggis.org/Preservation/Landmarks/Large/126.jpg,http://sfplanninggis.org/Preservation/Landmarks/Docs/126.jpg,1904,HERMAN BARTH,,0641/002,http://sfplanninggis.org/docs/landmarks_and_districts/LM126.pdf,http://propertymap.sfplanning.org?search=0641/002,37.790666,-122.424373
142,MULTIPOINT ((-122.40714299999996 37.80002200000007)),127,OLD SPAGHETTI FACTORY CAFE,478 GREEN ST,http://sfplanninggis.org/Preservation/Landmarks/Large/127.jpg,http://sfplanninggis.org/Preservation/Landmarks/Docs/127.jpg,1908,,,0115/019,http://sfplanninggis.org/docs/landmarks_and_districts/LM127.pdf,http://propertymap.sfplanning.org?search=0115/019,37.800022,-122.407143
143,MULTIPOINT ((-122.44278299999996 37.77363800000006)),128,CLUNIE HOUSE,301 LYON ST,http://sfplanninggis.org/Preservation/Landmarks/Large/128.jpg,http://sfplanninggis.org/Preservation/Landmarks/Docs/128.jpg,1897,WILLIAM CURLETT,,1207/008,http://sfplanninggis.org/docs/landmarks_and_districts/LM128.pdf,http://propertymap.sfplanning.org?search=1207/008,37.773638,-122.442783
144,MULTIPOINT ((-122.41244799999998 37.804362000000026)),129,BAUER & SCHWEITZER MALTING COMPANY,530-550 CHESTNUT ST,http://sfplanninggis.org/Preservation/Landmarks/Large/129.jpg,http://sfplanninggis.org/Preservation/Landmarks/Docs/129.jpg,1906-1908,GALLAND-HENNING P.M.D. MFG. CO.,,0052/101,http://sfplanninggis.org/docs/landmarks_and_districts/LM129.pdf,http://propertymap.sfplanning.org?search=0052/101,37.804362,-122.412448
145,MULTIPOINT ((-122.41243499999996 37.78137400000003)),130,HIBERNIA BANK,1 JONES ST,http://sfplanninggis.org/Preservation/Landmarks/Large/130.jpg,http://sfplanninggis.org/Preservation/Landmarks/Docs/130.jpg,"1892,1905,1907",ALBERT PISSIS,,0349/003,http://sfplanninggis.org/docs/landmarks_and_districts/LM130.pdf,http://propertymap.sfplanning.org?search=0349/003,37.781374,-122.412435
146,MULTIPOINT ((-122.40467499999994 37.787108000000046)),131,WELLS FARGO UNION TRUST BRANCH,744 MARKET ST,http://sfplanninggis.org/Preservation/Landmarks/Large/131.jpg,http://sfplanninggis.org/Preservation/Landmarks/Docs/131.jpg,1910,CLINTON DAY,,0312/006,http://sfplanninggis.org/docs/landmarks_and_districts/LM131.pdf,http://propertymap.sfplanning.org?search=0312/006,37.787108,-122.404675
147,MULTIPOINT ((-122.40517599999998 37.786988000000065)),132,SAVINGS UNION BRANCH OF SEC.PAC.NATL BNK,1 GRANT ST,http://sfplanninggis.org/Preservation/Landmarks/Large/132.jpg,http://sfplanninggis.org/Preservation/Landmarks/Docs/132.jpg,1910,BLISS AND FAVILLE,,0313/008,http://sfplanninggis.org/docs/landmarks_and_districts/LM132.pdf,http://propertymap.sfplanning.org?search=0313/008,37.786988,-122.405176
148,MULTIPOINT ((-122.432009 37.74996300000004)),133,AXFORD HOUSE,1190 NOE ST,http://sfplanninggis.org/Preservation/Landmarks/Large/133.jpg,http://sfplanninggis.org/Preservation/Landmarks/Docs/133.jpg,1877,,,6538/048,http://sfplanninggis.org/docs/landmarks_and_districts/LM133.pdf,http://propertymap.sfplanning.org?search=6538/048,37.749963,-122.432009
149,MULTIPOINT ((-122.40303399999999 37.78874700000006)),134,THE MECHANICS INSTITUTE,57-65 POST ST,http://sfplanninggis.org/Preservation/Landmarks/Large/134.jpg,http://sfplanninggis.org/Preservation/Landmarks/Docs/134.jpg,1909,ALBERT PISSIS,,0311/013,http://sfplanninggis.org/docs/landmarks_and_districts/LM134.pdf,http://propertymap.sfplanning.org?search=0311/013,37.788747,-122.403034
150,MULTIPOINT ((-122.43636899999996 37.777323000000024)),135,WESTERFELD HOUSE,1198 FULTON ST,http://sfplanninggis.org/Preservation/Landmarks/Large/135.jpg,http://sfplanninggis.org/Preservation/Landmarks/Docs/135.jpg,1889,HENRY GEILFUSS,,0777/015,http://sfplanninggis.org/docs/landmarks_and_districts/LM135.pdf,http://propertymap.sfplanning.org?search=0777/015,37.777323,-122.436369
151,MULTIPOINT ((-122.42315999999994 37.757709000000034)),136,MARSDEN KERSHAW HOUSE,845 GUERRERO ST,http://sfplanninggis.org/Preservation/Landmarks/Large/136.jpg,http://sfplanninggis.org/Preservation/Landmarks/Docs/136.jpg,1871,,,3608/051,http://sfplanninggis.org/docs/landmarks_and_districts/LM136.pdf,http://propertymap.sfplanning.org?search=3608/051,37.757709,-122.42316
152,MULTIPOINT ((-122.42541099999994 37.76391700000005)),137,NOTRE DAME SCHOOL,333-351 DOLORES ST,http://sfplanninggis.org/Preservation/Landmarks/Large/137.jpg,http://sfplanninggis.org/Preservation/Landmarks/Docs/137.jpg,1906-1907,THEODORE W. LENZER,,3567/056,http://sfplanninggis.org/docs/landmarks_and_districts/LM137.pdf,http://propertymap.sfplanning.org?search=3567/056,37.763917,-122.425411
153,MULTIPOINT ((-122.38979299999994 37.758538000000044)),138,THE POTRERO SCHOOL,1060 TENNESSEE ST,http://sfplanninggis.org/Preservation/Landmarks/Large/138.jpg,http://sfplanninggis.org/Preservation/Landmarks/Docs/138.jpg,1895,,,4107/006,http://sfplanninggis.org/docs/landmarks_and_districts/LM138.pdf,http://propertymap.sfplanning.org?search=4107/006,37.758538,-122.389793
154,MULTIPOINT ((-122.41644299999996 37.76232300000004)),139,ST. CHARLES SCHOOL,376-382 SHOTWELL ST,http://sfplanninggis.org/Preservation/Landmarks/Large/139.jpg,http://sfplanninggis.org/Preservation/Landmarks/Docs/139.jpg,1887-1888,,,3574/085,http://sfplanninggis.org/docs/landmarks_and_districts/LM139.pdf,http://propertymap.sfplanning.org?search=3574/085,37.762323,-122.416443
155,MULTIPOINT ((-122.42046499999998 37.776725000000056)),140,HIGH SCHOOL OF COMMERCE,135 VAN NESS AV,http://sfplanninggis.org/Preservation/Landmarks/Large/140.jpg,http://sfplanninggis.org/Preservation/Landmarks/Docs/140.jpg,1926,"JOHN REID, JR., CITY ARCHITECT",,0815/001,http://sfplanninggis.org/docs/landmarks_and_districts/LM140.pdf,http://propertymap.sfplanning.org?search=0815/001,37.776725,-122.420465
156,MULTIPOINT ((-122.42046499999998 37.776725000000056)),140,NEWTON J. THARP COMMERCIAL SCHOOL,170-135 FELL ST,http://sfplanninggis.org/Preservation/Landmarks/Large/140.jpg,http://sfplanninggis.org/Preservation/Landmarks/Docs/140.jpg,1926,"JOHN REID, JR., CITY ARCHITECT",,0815/001,http://sfplanninggis.org/docs/landmarks_and_districts/LM140.pdf,http://propertymap.sfplanning.org?search=0815/001,37.776725,-122.420465
157,MULTIPOINT ((-122.40587 37.79015000000004)),141,HOME TELEPHONE COMPANY,333 GRANT AV,http://sfplanninggis.org/Preservation/Landmarks/Large/141.jpg,http://sfplanninggis.org/Preservation/Landmarks/Docs/141.jpg,1908,COXHEAD AND COXHEAD,,0286/034,http://sfplanninggis.org/docs/landmarks_and_districts/LM141.pdf,http://propertymap.sfplanning.org?search=0286/034,37.79015,-122.40587
158,MULTIPOINT ((-122.40259699999996 37.79414000000003)),142,PG&E OLD STATION J,565-569 COMMERCIAL ST,http://sfplanninggis.org/Preservation/Landmarks/Large/142.jpg,http://sfplanninggis.org/Preservation/Landmarks/Docs/142.jpg,1914,FREDERICK H. MEYER,,0228/011,http://sfplanninggis.org/docs/landmarks_and_districts/LM142.pdf,http://propertymap.sfplanning.org?search=0228/011,37.79414,-122.402597
159,MULTIPOINT ((-122.40510799999998 37.79090700000006)),143,FIRE STATION 2,460 BUSH ST,http://sfplanninggis.org/Preservation/Landmarks/Large/143.jpg,http://sfplanninggis.org/Preservation/Landmarks/Docs/143.jpg,1909,NEWTON J. THARP,,0270/041,http://sfplanninggis.org/docs/landmarks_and_districts/LM143.pdf,http://propertymap.sfplanning.org?search=0270/041,37.790907,-122.405108
160,MULTIPOINT ((-122.40140599999995 37.78866000000005)),144,HOFFMAN'S GRILL,619 MARKET ST,http://sfplanninggis.org/Preservation/Landmarks/Large/144.jpg,http://sfplanninggis.org/Preservation/Landmarks/Docs/144.jpg,1913,WOODWARD WETHERED,,3707/062,http://sfplanninggis.org/docs/landmarks_and_districts/LM144.pdf,http://propertymap.sfplanning.org?search=3707/062,37.78866,-122.401406
161,MULTIPOINT ((-122.39948199999998 37.79356100000007)),145,BUICH BLDG/TADICH GRILL,240-242 CALIFORNIA ST,http://sfplanninggis.org/Preservation/Landmarks/Large/145.jpg,http://sfplanninggis.org/Preservation/Landmarks/Docs/145.jpg,1909,CRIM AND SCOTT,,0237/009,http://sfplanninggis.org/docs/landmarks_and_districts/LM145.pdf,http://propertymap.sfplanning.org?search=0237/009,37.793561,-122.399482
162,MULTIPOINT ((-122.40346499999998 37.793547000000046)),146,JACK'S RESTAURANT BUILDING,615 SACRAMENTO ST,http://sfplanninggis.org/Preservation/Landmarks/Large/146.jpg,http://sfplanninggis.org/Preservation/Landmarks/Docs/146.jpg,1907,SALFIELD & KOHLBERG,,0240/014,http://sfplanninggis.org/docs/landmarks_and_districts/LM146.pdf,http://propertymap.sfplanning.org?search=0240/014,37.793547,-122.403465
163,MULTIPOINT ((-122.50874499999998 37.77029300000004)),147,DUTCH WINDMILL (NORTH WINDMILL),GOLDEN GATE PARK,http://sfplanninggis.org/Preservation/Landmarks/Large/147.jpg,http://sfplanninggis.org/Preservation/Landmarks/Docs/147.jpg,1903,"ALPHEUS BELL, JR., MECHANICAL ENGINEER",,1700/001,http://sfplanninggis.org/docs/landmarks_and_districts/LM147.pdf,http://propertymap.sfplanning.org?search=1700/001,37.770293,-122.508745
164,MULTIPOINT ((-122.39851999999996 37.75620200000003)),148,THE KERRIGAN HOUSE,893 WISCONSIN ST,http://sfplanninggis.org/Preservation/Landmarks/Large/148.jpg,http://sfplanninggis.org/Preservation/Landmarks/Docs/148.jpg,1905,,,4162/057,http://sfplanninggis.org/docs/landmarks_and_districts/LM148.pdf,http://propertymap.sfplanning.org?search=4162/057,37.756202,-122.39852
165,MULTIPOINT ((-122.39398499999999 37.78735900000004)),149,F.V. WILBERT TOOL MANUFACTURING SHOP,443-449 FOLSOM ST,http://sfplanninggis.org/Preservation/Landmarks/Large/149.jpg,http://sfplanninggis.org/Preservation/Landmarks/Docs/149.jpg,1911,,,3748/028,http://sfplanninggis.org/docs/landmarks_and_districts/LM149.pdf,http://propertymap.sfplanning.org?search=3748/028,37.787359,-122.393985
166,MULTIPOINT ((-122.42473899999999 37.76754600000004)),150,SHEET METAL WORKERS' UNION HALL,224-226 GUERRERO ST,http://sfplanninggis.org/Preservation/Landmarks/Large/150.jpg,http://sfplanninggis.org/Preservation/Landmarks/Docs/150.jpg,1906,"JAMES E. PERCY AND WILLIAM STARKE, LOCAL 104",,3545/003,http://sfplanninggis.org/docs/landmarks_and_districts/LM150.pdf,http://propertymap.sfplanning.org?search=3545/003,37.767546,-122.424739
167,MULTIPOINT ((-122.43360899999999 37.777644000000066)),151,THE ARCHBISHOP'S MANSION,1000 FULTON ST,http://sfplanninggis.org/Preservation/Landmarks/Large/151.jpg,http://sfplanninggis.org/Preservation/Landmarks/Docs/151.jpg,1904,FRANK D. SHEA,,0778/006,http://sfplanninggis.org/docs/landmarks_and_districts/LM151.pdf,http://propertymap.sfplanning.org?search=0778/006,37.777644,-122.433609
168,MULTIPOINT ((-122.42037699999997 37.78512600000005)),152,DON LEE AUTOMOBILE SHOWROOM,1000 VAN NESS AV,http://sfplanninggis.org/Preservation/Landmarks/Large/152.jpg,http://sfplanninggis.org/Preservation/Landmarks/Docs/152.jpg,1921,WEEKS AND DAY,,0715/015,http://sfplanninggis.org/docs/landmarks_and_districts/LM152.pdf,http://propertymap.sfplanning.org?search=0715/015,37.785126,-122.420377
169,MULTIPOINT ((-122.42169399999995 37.784002000000044)),153,EARLE C. ANTHONY PACKARD SHOWROOM,901 VAN NESS AV,http://sfplanninggis.org/Preservation/Landmarks/Large/153.jpg,http://sfplanninggis.org/Preservation/Landmarks/Docs/153.jpg,1926-1927,BERNARD MAYBECK,,0719/002,http://sfplanninggis.org/docs/landmarks_and_districts/LM153.pdf,http://propertymap.sfplanning.org?search=0719/002,37.784002,-122.421694
170,MULTIPOINT ((-122.407423 37.78511100000003)),154,JAMES FLOOD BUILDING,870-898 MARKET ST,http://sfplanninggis.org/Preservation/Landmarks/Large/154.jpg,http://sfplanninggis.org/Preservation/Landmarks/Docs/154.jpg,1904,ALBERT PISSIS,,0329/005,http://sfplanninggis.org/docs/landmarks_and_districts/LM154.pdf,http://propertymap.sfplanning.org?search=0329/005,37.785111,-122.407423
171,MULTIPOINT ((-122.40078299999999 37.79005700000005)),155,FLATIRON BUILDING,540-548 MARKET ST,http://sfplanninggis.org/Preservation/Landmarks/Large/155.jpg,http://sfplanninggis.org/Preservation/Landmarks/Docs/155.jpg,1913,HAVENS AND TOEPKE,,0291/001,http://sfplanninggis.org/docs/landmarks_and_districts/LM155.pdf,http://propertymap.sfplanning.org?search=0291/001,37.790057,-122.400783
172,MULTIPOINT ((-122.40554599999996 37.786459000000036)),156,PHELAN BUILDING,760-784 MARKET ST,http://sfplanninggis.org/Preservation/Landmarks/Large/156.jpg,http://sfplanninggis.org/Preservation/Landmarks/Docs/156.jpg,1908,WILLIAM CURLETT,,0328/001,http://sfplanninggis.org/docs/landmarks_and_districts/LM156.pdf,http://propertymap.sfplanning.org?search=0328/001,37.786459,-122.405546
173,MULTIPOINT ((-122.38975699999997 37.78980300000006)),157,HILLS BROTHERS COFFEE PLANT,2 HARRISON ST,http://sfplanninggis.org/Preservation/Landmarks/Large/157.jpg,http://sfplanninggis.org/Preservation/Landmarks/Docs/157.jpg,1924-1926,GEORGE KELHAM,,3744/002,http://sfplanninggis.org/docs/landmarks_and_districts/LM157.pdf,http://propertymap.sfplanning.org?search=3744/002,37.789803,-122.389757
174,MULTIPOINT ((-122.40078499999998 37.79428900000005)),158,FEDERAL RESERVE BANK BUILDING,400 SANSOME ST,http://sfplanninggis.org/Preservation/Landmarks/Large/158.jpg,http://sfplanninggis.org/Preservation/Landmarks/Docs/158.jpg,1919-1924,GEORGE KELHAM,,0229/003,http://sfplanninggis.org/docs/landmarks_and_districts/LM158.pdf,http://propertymap.sfplanning.org?search=0229/003,37.794289,-122.400785
175,MULTIPOINT ((-122.41288999999995 37.78716000000003)),159,GAYLORD HOTEL,620 JONES ST,http://sfplanninggis.org/Preservation/Landmarks/Large/159.jpg,http://sfplanninggis.org/Preservation/Landmarks/Docs/159.jpg,1928-1929,"HERMAN C. BAUMAN;D.D.STONE, ASSOCIATED ARCH.",,0305/036,http://sfplanninggis.org/docs/landmarks_and_districts/LM159.pdf,http://propertymap.sfplanning.org?search=0305/036,37.78716,-122.41289
176,MULTIPOINT ((-122.40124199999997 37.79225700000006)),160,ROYAL GLOBE INSURANCE BUILDING,210 SANSOME ST,http://sfplanninggis.org/Preservation/Landmarks/Large/160.jpg,http://sfplanninggis.org/Preservation/Landmarks/Docs/160.jpg,1907,HOWELLS AND STOKES,,0260/026,http://sfplanninggis.org/docs/landmarks_and_districts/LM160.pdf,http://propertymap.sfplanning.org?search=0260/026,37.792257,-122.401242
177,MULTIPOINT ((-122.40256699999998 37.79314900000003)),161,THE KOHL BLDG (ALVINZA HAYWARD BLDG),400 MONTGOMERY ST,http://sfplanninggis.org/Preservation/Landmarks/Large/161.jpg,http://sfplanninggis.org/Preservation/Landmarks/Docs/161.jpg,1901/1907,PERCY AND POLK,,0239/009,http://sfplanninggis.org/docs/landmarks_and_districts/LM161.pdf,http://propertymap.sfplanning.org?search=0239/009,37.793149,-122.402567
178,MULTIPOINT ((-122.40160999999995 37.789525000000026)),162,THE HOBART BLDG,582-592 MARKET ST,http://sfplanninggis.org/Preservation/Landmarks/Large/162.jpg,http://sfplanninggis.org/Preservation/Landmarks/Docs/162.jpg,1914,WILLIS POLK,,0291/006,http://sfplanninggis.org/docs/landmarks_and_districts/LM162.pdf,http://propertymap.sfplanning.org?search=0291/006,37.789525,-122.40161
179,MULTIPOINT ((-122.40100899999999 37.78815000000003)),163,THE SHARON BLDG,39-63 NEW MONTGOMERY ST,http://sfplanninggis.org/Preservation/Landmarks/Large/163.jpg,http://sfplanninggis.org/Preservation/Landmarks/Docs/163.jpg,1912,GEORGE W. KELHAM,,3707/035,http://sfplanninggis.org/docs/landmarks_and_districts/LM163.pdf,http://propertymap.sfplanning.org?search=3707/035,37.78815,-122.401009
180,"MULTIPOINT ((-122.42539399999998 37.77301200000005), (-122.42530399999998 37.77302300000008))",164,MCMORRY-LAGAN BLDG,188 HAIGHT ST,http://sfplanninggis.org/Preservation/Landmarks/Large/164.jpg,http://sfplanninggis.org/Preservation/Landmarks/Docs/164.jpg,"1889,BARN 1883",THOMAS J. WELSH,,0852/033,http://sfplanninggis.org/docs/landmarks_and_districts/LM164.pdf,http://propertymap.sfplanning.org?search=0852/033,37.7730175,-122.425349
181,"MULTIPOINT ((-122.42539399999998 37.77301200000005), (-122.42530399999998 37.77302300000008))",164,MCMORRY-LAGAN BLDG,198-188 HAIGHT ST,http://sfplanninggis.org/Preservation/Landmarks/Large/164.jpg,http://sfplanninggis.org/Preservation/Landmarks/Docs/164.jpg,"1889,BARN 1883",THOMAS J. WELSH,,0852/033,http://sfplanninggis.org/docs/landmarks_and_districts/LM164.pdf,http://propertymap.sfplanning.org?search=0852/033,37.7730175,-122.425349
182,MULTIPOINT ((-122.40584499999994 37.802279000000055)),165,COIT TOWER,TELEGRAPH HILL BL,http://sfplanninggis.org/Preservation/Landmarks/Large/165.jpg,http://sfplanninggis.org/Preservation/Landmarks/Docs/165.jpg,1934,"ARTHUR BROWN JR., HENRY T. HOWARD",,0086/012,http://sfplanninggis.org/docs/landmarks_and_districts/LM165.pdf,http://propertymap.sfplanning.org?search=0086/012,37.802279,-122.405845
183,MULTIPOINT ((-122.41770899999995 37.75366100000008)),166,TRINITY PRESBYTERIAN CHURCH,3261 23RD ST,http://sfplanninggis.org/Preservation/Landmarks/Large/166.jpg,http://sfplanninggis.org/Preservation/Landmarks/Docs/166.jpg,1891-1892,PERCY AND HAMILTON,,3642/035,http://sfplanninggis.org/docs/landmarks_and_districts/LM166.pdf,http://propertymap.sfplanning.org?search=3642/035,37.753661,-122.417709
184,MULTIPOINT ((-122.40682899999996 37.79184500000008)),167,MET LIFE -PACIFIC COAST HEAD OFFICE,600 STOCKTON ST,http://sfplanninggis.org/Preservation/Landmarks/Large/167.jpg,http://sfplanninggis.org/Preservation/Landmarks/Docs/167.jpg,1909,LEBRUN AND SONS,,0257/012,http://sfplanninggis.org/docs/landmarks_and_districts/LM167.pdf,http://propertymap.sfplanning.org?search=0257/012,37.791845,-122.406829
185,MULTIPOINT ((-122.43113999999997 37.78955200000007)),168,WILLIAM VALE HOUSE,2226 CALIFORNIA ST,http://sfplanninggis.org/Preservation/Landmarks/Large/168.jpg,http://sfplanninggis.org/Preservation/Landmarks/Docs/168.jpg,1885,ALBERT PISSIS,,0637/040,http://sfplanninggis.org/docs/landmarks_and_districts/LM168.pdf,http://propertymap.sfplanning.org?search=0637/040,37.789552,-122.43114
186,MULTIPOINT ((-122.45949099999996 37.78459000000004)),169,CAMPFIRE GIRLS BUILDING,325 ARGUELLO BL,http://sfplanninggis.org/Preservation/Landmarks/Large/169.jpg,http://sfplanninggis.org/Preservation/Landmarks/Docs/169.jpg,1929,HENRY GUTTERSON,,1432/003,http://sfplanninggis.org/docs/landmarks_and_districts/LM169.pdf,http://propertymap.sfplanning.org?search=1432/003,37.78459,-122.459491
187,MULTIPOINT ((-122.41338299999995 37.79200800000007)),170,CATHEDRAL HOUSE-DEMOLISHED 1994,1051 TAYLOR ST,http://sfplanninggis.org/Preservation/Landmarks/Large/170.jpg,http://sfplanninggis.org/Preservation/Landmarks/Docs/170.jpg,1911-12,LEWIS P. HOBART,,0246/001,http://sfplanninggis.org/docs/landmarks_and_districts/LM170.pdf,http://propertymap.sfplanning.org?search=0246/001,37.792008,-122.413383
188,MULTIPOINT ((-122.41338299999995 37.79200800000007)),170,GRACE CATHEDRAL,1051 TAYLOR ST,http://sfplanninggis.org/Preservation/Landmarks/Large/170.jpg,http://sfplanninggis.org/Preservation/Landmarks/Docs/170.jpg,1911-12,LEWIS P. HOBART,,0246/001,http://sfplanninggis.org/docs/landmarks_and_districts/LM170.pdf,http://propertymap.sfplanning.org?search=0246/001,37.792008,-122.413383
189,MULTIPOINT ((-122.41338299999995 37.79200800000007)),170,"GRACE CATHEDRAL, CROCKER GATE",1051 TAYLOR ST,http://sfplanninggis.org/Preservation/Landmarks/Large/170.jpg,http://sfplanninggis.org/Preservation/Landmarks/Docs/170.jpg,1911-12,LEWIS P. HOBART,,0246/001,http://sfplanninggis.org/docs/landmarks_and_districts/LM170.pdf,http://propertymap.sfplanning.org?search=0246/001,37.792008,-122.413383
190,MULTIPOINT ((-122.41338299999995 37.79200800000007)),170,"GRACE CATHEDRAL, DIOCESAN HOUSE",1055-1051 TAYLOR ST,http://sfplanninggis.org/Preservation/Landmarks/Large/170.jpg,http://sfplanninggis.org/Preservation/Landmarks/Docs/170.jpg,1911-12,LEWIS P. HOBART,,0246/001,http://sfplanninggis.org/docs/landmarks_and_districts/LM170.pdf,http://propertymap.sfplanning.org?search=0246/001,37.792008,-122.413383
191,MULTIPOINT ((-122.48290299999996 37.764621000000034)),171,REFUGEE SHACK,1227 24TH AV,http://sfplanninggis.org/Preservation/Landmarks/Large/171.jpg,http://sfplanninggis.org/Preservation/Landmarks/Docs/171.jpg,1906-1907,"CITY CORPS OF ENGINEERS, U.S. ARMY GEN. WASHINGTON GREELEY",,1726/004,http://sfplanninggis.org/docs/landmarks_and_districts/LM171.pdf,http://propertymap.sfplanning.org?search=1726/004,37.764621,-122.482903
192,MULTIPOINT ((-122.41307699999999 37.78167700000006)),172,ST BONIFACE CHURCH,133 GOLDEN GATE AV,http://sfplanninggis.org/Preservation/Landmarks/Large/172.jpg,http://sfplanninggis.org/Preservation/Landmarks/Docs/172.jpg,1898-1902,"BROTHER ADRIAN WEAVER OFM; MARTENS AND COFFEY, SUPERVISING ARCHITECTS",,0349/012,http://sfplanninggis.org/docs/landmarks_and_districts/LM172.pdf,http://propertymap.sfplanning.org?search=0349/012,37.781677,-122.413077
193,"MULTIPOINT ((-122.40664599999997 37.79065600000007), (-122.40653799999995 37.79074300000008))",173,NOTRE DAME DES VICTOIRES CHURCH & RECTOR,564 BUSH ST,http://sfplanninggis.org/Preservation/Landmarks/Large/173.jpg,http://sfplanninggis.org/Preservation/Landmarks/Docs/173.jpg,1913,LOUIS BROCHOUD,,0271/012,http://sfplanninggis.org/docs/landmarks_and_districts/LM173.pdf,http://propertymap.sfplanning.org?search=0271/012,37.7906995,-122.406592
194,"MULTIPOINT ((-122.40664599999997 37.79065600000007), (-122.40653799999995 37.79074300000008))",173,NOTRE DAME DES VICTOIRES CHURCH & RECTOR,566-564 BUSH ST,http://sfplanninggis.org/Preservation/Landmarks/Large/173.jpg,http://sfplanninggis.org/Preservation/Landmarks/Docs/173.jpg,1913,LOUIS BROCHOUD,,0271/012,http://sfplanninggis.org/docs/landmarks_and_districts/LM173.pdf,http://propertymap.sfplanning.org?search=0271/012,37.7906995,-122.406592
195,MULTIPOINT ((-122.41939599999995 37.782407000000035)),174,CALIFORNIA HALL,625 POLK ST,http://sfplanninggis.org/Preservation/Landmarks/Large/174.jpg,http://sfplanninggis.org/Preservation/Landmarks/Docs/174.jpg,1912,FREDERICK MEYER,,0742/002,http://sfplanninggis.org/docs/landmarks_and_districts/LM174.pdf,http://propertymap.sfplanning.org?search=0742/002,37.782407,-122.419396
196,MULTIPOINT ((-122.45464199999998 37.77213500000005)),175,MCLAREN LODGE,GOLDEN GATE PARK,http://sfplanninggis.org/Preservation/Landmarks/Large/175.jpg,http://sfplanninggis.org/Preservation/Landmarks/Docs/175.jpg,1896,EDWARD H. SWAIN,,1700/001,http://sfplanninggis.org/docs/landmarks_and_districts/LM175.pdf,http://propertymap.sfplanning.org?search=1700/001,37.772135,-122.454642
197,MULTIPOINT ((-122.41394299999996 37.784054000000026)),176,CADILLAC HOTEL,380 EDDY ST,http://sfplanninggis.org/Preservation/Landmarks/Large/176.jpg,http://sfplanninggis.org/Preservation/Landmarks/Docs/176.jpg,1908,MEYER AND O'BRIEN,,0333/012,http://sfplanninggis.org/docs/landmarks_and_districts/LM176.pdf,http://propertymap.sfplanning.org?search=0333/012,37.784054,-122.413943
198,MULTIPOINT ((-122.40969799999999 37.787840000000074)),177,FIRST CONGREGATIONAL CHURCH,432 MASON ST,http://sfplanninggis.org/Preservation/Landmarks/Large/177.jpg,http://sfplanninggis.org/Preservation/Landmarks/Docs/177.jpg,1913-1915,REID BROTHERS,,0307/009,http://sfplanninggis.org/docs/landmarks_and_districts/LM177.pdf,http://propertymap.sfplanning.org?search=0307/009,37.78784,-122.409698
199,MULTIPOINT ((-122.42261899999994 37.761420000000044)),178,MISSION TURN HALL (WOMEN'S BUILDING),3541-3543 18TH ST,http://sfplanninggis.org/Preservation/Landmarks/Large/178.jpg,http://sfplanninggis.org/Preservation/Landmarks/Docs/178.jpg,1910,A. REINHOLD DENKE,,3588/082,http://sfplanninggis.org/docs/landmarks_and_districts/LM178.pdf,http://propertymap.sfplanning.org?search=3588/082,37.76142,-122.422619
200,MULTIPOINT ((-122.51019899999994 37.76955700000008)),179,BEACH CHALET,1000 GREAT HIGHWAY ST,http://sfplanninggis.org/Preservation/Landmarks/Large/179.jpg,http://sfplanninggis.org/Preservation/Landmarks/Docs/179.jpg,1925,WILLIS POLK,,1700/001,http://sfplanninggis.org/docs/landmarks_and_districts/LM179.pdf,http://propertymap.sfplanning.org?search=1700/001,37.769557,-122.510199
201,MULTIPOINT ((-122.44620899999995 37.71990900000003)),180,S.F. & SAN MATEO RAILROAD CO. OFFICE BLD,2301 SAN JOSE AV,http://sfplanninggis.org/Preservation/Landmarks/Large/180.jpg,http://sfplanninggis.org/Preservation/Landmarks/Docs/180.jpg,1901,REID BROTHERS,,6972/022,http://sfplanninggis.org/docs/landmarks_and_districts/LM180.pdf,http://propertymap.sfplanning.org?search=6972/022,37.719909,-122.446209
202,MULTIPOINT ((-122.44620899999995 37.71990900000003)),180,S.F. & SAN MATEO RAILROAD CO. OFFICE BUI,2301 SAN JOSE AV,http://sfplanninggis.org/Preservation/Landmarks/Large/180.jpg,http://sfplanninggis.org/Preservation/Landmarks/Docs/180.jpg,1901,REID BROTHERS,,6972/022,http://sfplanninggis.org/docs/landmarks_and_districts/LM180.pdf,http://propertymap.sfplanning.org?search=6972/022,37.719909,-122.446209
203,MULTIPOINT ((-122.46022799999997 37.76848400000006)),181,LAWN BOWLING CLUBHOUSE AND GREENS,GOLDEN GATE PARK,http://sfplanninggis.org/Preservation/Landmarks/Large/181.jpg,http://sfplanninggis.org/Preservation/Landmarks/Docs/181.jpg,1915,,,1700/001,http://sfplanninggis.org/docs/landmarks_and_districts/LM181.pdf,http://propertymap.sfplanning.org?search=1700/001,37.768484,-122.460228
204,MULTIPOINT ((-122.43736399999995 37.774222000000066)),182,THEODORE GREEN APOTHECARY,500-502 DIVISADERO,http://sfplanninggis.org/Preservation/Landmarks/Large/182.jpg,http://sfplanninggis.org/Preservation/Landmarks/Docs/182.jpg,1888-1889,SAMUEL NEWSOM,,1203/017A,http://sfplanninggis.org/docs/landmarks_and_districts/LM182.pdf,http://propertymap.sfplanning.org?search=1203/017A,37.774222,-122.437364
205,MULTIPOINT ((-122.40014499999995 37.79085100000003)),183,CROWN ZELLERBACH BLDG,590 MARKET ST,http://sfplanninggis.org/Preservation/Landmarks/Large/183.jpg,http://sfplanninggis.org/Preservation/Landmarks/Docs/183.jpg,1959,"HERTZKA & KNOWLES; SKIDMORE, OWINGS & MERRILL",,0290/011,http://sfplanninggis.org/docs/landmarks_and_districts/LM183.pdf,http://propertymap.sfplanning.org?search=0290/011,37.790851,-122.400145
206,MULTIPOINT ((-122.41024799999997 37.791405000000054)),184,MARK HOPKINS HOTEL,850 MASON ST,http://sfplanninggis.org/Preservation/Landmarks/Large/184.jpg,http://sfplanninggis.org/Preservation/Landmarks/Docs/184.jpg,1925-1926,WEEKS AND DAY,,0255/002,http://sfplanninggis.org/docs/landmarks_and_districts/LM184.pdf,http://propertymap.sfplanning.org?search=0255/002,37.791405,-122.410248
207,MULTIPOINT ((-122.41009299999996 37.79242500000004)),185,FAIRMONT HOTEL,950 MASON ST,http://sfplanninggis.org/Preservation/Landmarks/Large/185.jpg,http://sfplanninggis.org/Preservation/Landmarks/Docs/185.jpg,1902-1906,REID BROTHERS; STANFORD WHITE,,0244/001,http://sfplanninggis.org/docs/landmarks_and_districts/LM185.pdf,http://propertymap.sfplanning.org?search=0244/001,37.792425,-122.410093
208,MULTIPOINT ((-122.43518899999998 37.75259100000005)),186,LEWIS HOUSE,4143 23RD ST,http://sfplanninggis.org/Preservation/Landmarks/Large/186.jpg,http://sfplanninggis.org/Preservation/Landmarks/Docs/186.jpg,1892,DAVID LEWIS,,2804/040,http://sfplanninggis.org/docs/landmarks_and_districts/LM186.pdf,http://propertymap.sfplanning.org?search=2804/040,37.752591,-122.435189
209,"MULTIPOINT ((-122.47356699999995 37.739261000000056), (-122.40356999999995 37.75169100000005))",187,"#37 ENGINE, #9 TRUCK FIREHOUSE",2501 25TH ST,http://sfplanninggis.org/Preservation/Landmarks/Large/187.jpg,http://sfplanninggis.org/Preservation/Landmarks/Docs/187.jpg,1918,CLARENCE R. WARD,,4279/001,http://sfplanninggis.org/docs/landmarks_and_districts/LM187.pdf,http://propertymap.sfplanning.org?search=2479/001,37.745476,-122.4385685
210,"MULTIPOINT ((-122.47356699999995 37.739261000000056), (-122.40356999999995 37.75169100000005))",187,"ENGINE CO. #37, TRUCK CO. #9",2501 25TH ST,http://sfplanninggis.org/Preservation/Landmarks/Large/187.jpg,http://sfplanninggis.org/Preservation/Landmarks/Docs/187.jpg,1918,CLARENCE R. WARD,,2479/001,http://sfplanninggis.org/docs/landmarks_and_districts/LM187.pdf,http://propertymap.sfplanning.org?search=2479/001,37.745476,-122.4385685
211,MULTIPOINT ((-122.42241199999995 37.795195000000035)),188,"ENGINE CO. #8, TRUCK CO. #4",1648 PACIFIC AV,http://sfplanninggis.org/Preservation/Landmarks/Large/188.jpg,http://sfplanninggis.org/Preservation/Landmarks/Docs/188.jpg,1917,"JOHN REID, JR.",,0574/011,http://sfplanninggis.org/docs/landmarks_and_districts/LM188.pdf,http://propertymap.sfplanning.org?search=0574/011,37.795195,-122.422412
212,MULTIPOINT ((-122.42297699999995 37.749272000000076)),189,FRANK G. EDWARDS HOUSE,1366 GUERRERO ST,http://sfplanninggis.org/Preservation/Landmarks/Large/189.jpg,http://sfplanninggis.org/Preservation/Landmarks/Docs/189.jpg,1883,JOSEPH GOSLING,,6533/013,http://sfplanninggis.org/docs/landmarks_and_districts/LM189.pdf,http://propertymap.sfplanning.org?search=6533/013,37.749272,-122.422977
213,MULTIPOINT ((-122.43676799999997 37.77182000000005)),190,CHARLES L. HINKEL HOUSE,280 DIVISADERO ST,http://sfplanninggis.org/Preservation/Landmarks/Large/190.jpg,http://sfplanninggis.org/Preservation/Landmarks/Docs/190.jpg,1885,CHARLES L. HINKEL,,1238/023,http://sfplanninggis.org/docs/landmarks_and_districts/LM190.pdf,http://propertymap.sfplanning.org?search=1238/023,37.77182,-122.436768
214,MULTIPOINT ((-122.42437899999999 37.75334000000004)),191,OAKLEY RESIDENCE & FLATS,200-202 FAIR OAKS ST,http://sfplanninggis.org/Preservation/Landmarks/Large/191.jpg,http://sfplanninggis.org/Preservation/Landmarks/Docs/191.jpg,1886,TOWNSEND AND WYNEKEN,,3648/050,http://sfplanninggis.org/docs/landmarks_and_districts/LM191.pdf,http://propertymap.sfplanning.org?search=3648/050,37.75334,-122.424379
249,MULTIPOINT ((-122.41886499999998 37.76485900000006)),215,BROWN'S OPERA HOUSE,2961 16TH ST,http://sfplanninggis.org/Preservation/Landmarks/Large/215.jpg,http://sfplanninggis.org/Preservation/Landmarks/Docs/215.jpg,1908,WERNER(CARL) & O'BRIEN (MATTHEW),,3570/031A,http://sfplanninggis.org/docs/landmarks_and_districts/LM215.pdf,http://propertymap.sfplanning.org?search=3570/031A,37.764859,-122.418865
215,"MULTIPOINT ((-122.44195299999996 37.774249000000054), (-122.44182599999999 37.773885000000064))",192,SOUTHERN PACIFIC CO. HOSPITAL COMPLEX,1400-1599 FELL ST,http://sfplanninggis.org/Preservation/Landmarks/Large/192.jpg,http://sfplanninggis.org/Preservation/Landmarks/Docs/192.jpg,1908,,,1206/003,http://sfplanninggis.org/docs/landmarks_and_districts/LM192.pdf,http://propertymap.sfplanning.org?search=1206/003,37.774067,-122.4418895
216,"MULTIPOINT ((-122.44195299999996 37.774249000000054), (-122.44182599999999 37.773885000000064))",192,SOUTHERN PACIFIC CO. HOSPITAL COMPLEX,1509-1599 HAYES ST,http://sfplanninggis.org/Preservation/Landmarks/Large/192.jpg,http://sfplanninggis.org/Preservation/Landmarks/Docs/192.jpg,1908,,,1206/003,http://sfplanninggis.org/docs/landmarks_and_districts/LM192.pdf,http://propertymap.sfplanning.org?search=1206/003,37.774067,-122.4418895
217,MULTIPOINT ((-122.40166299999999 37.77112500000004)),193,BAKER & HAMILTON BUILDING,700-768 7TH ST,http://sfplanninggis.org/Preservation/Landmarks/Large/193.jpg,http://sfplanninggis.org/Preservation/Landmarks/Docs/193.jpg,1904-1905,SUTTON AND WEEKS,,3799/001,http://sfplanninggis.org/docs/landmarks_and_districts/LM193.pdf,http://propertymap.sfplanning.org?search=3799/001,37.771125,-122.401663
218,MULTIPOINT ((-122.40166299999999 37.77112500000004)),193,BAKER AND HAMILTON BUILDING,700-768 7TH ST,http://sfplanninggis.org/Preservation/Landmarks/Large/193.jpg,http://sfplanninggis.org/Preservation/Landmarks/Docs/193.jpg,1904-1905,SUTTON AND WEEKS,,3799/001,http://sfplanninggis.org/docs/landmarks_and_districts/LM193.pdf,http://propertymap.sfplanning.org?search=3799/001,37.771125,-122.401663
219,MULTIPOINT ((-122.41403299999996 37.78704700000003)),195,ISLAM TEMPLE (ALCAZAR THEATER),650 GEARY ST,http://sfplanninggis.org/Preservation/Landmarks/Large/195.jpg,http://sfplanninggis.org/Preservation/Landmarks/Docs/195.jpg,1917,T. PATERSON ROSS,,0304/025,http://sfplanninggis.org/docs/landmarks_and_districts/LM195.pdf,http://propertymap.sfplanning.org?search=0304/025,37.787047,-122.414033
220,MULTIPOINT ((-122.48705799999999 37.786973000000046)),196,ALFRED G. HANSON RESIDENCE,126 27TH AV,http://sfplanninggis.org/Preservation/Landmarks/Large/196.jpg,http://sfplanninggis.org/Preservation/Landmarks/Docs/196.jpg,1907,JOHN CHARLES FLUGGER,,1332/049,http://sfplanninggis.org/docs/landmarks_and_districts/LM196.pdf,http://propertymap.sfplanning.org?search=1332/049,37.786973,-122.487058
221,MULTIPOINT ((-122.42747499999996 37.79292000000004)),197,SPRECKELS RESIDENCE,2080 WASHINGTON ST,http://sfplanninggis.org/Preservation/Landmarks/Large/197.jpg,http://sfplanninggis.org/Preservation/Landmarks/Docs/197.jpg,1912/1913,MACDONALD AND APPLEGARTH,,0601/005,http://sfplanninggis.org/docs/landmarks_and_districts/LM197.pdf,http://propertymap.sfplanning.org?search=0601/005,37.79292,-122.427475
222,MULTIPOINT ((-122.42985099999999 37.79063700000006)),198,RICHARD E. QUEEN HOUSE,2212 SACRAMENTO ST,http://sfplanninggis.org/Preservation/Landmarks/Large/198.jpg,http://sfplanninggis.org/Preservation/Landmarks/Docs/198.jpg,1895-1896,A. PAGE BROWN,,0627/004,http://sfplanninggis.org/docs/landmarks_and_districts/LM198.pdf,http://propertymap.sfplanning.org?search=0627/004,37.790637,-122.429851
223,"MULTIPOINT ((-122.41351099999997 37.77192900000006), (-122.41349999999994 37.771697000000074), (-122.41325799999998 37.77172800000005), (-122.41324099999997 37.771491000000026), (-122.413074 37.771581000000026), (-122.412872 37.77146700000003))",199,BLDG B: JACKSON BREWERY CO. COMPLEX,1475-333 FOLSOM ST,http://sfplanninggis.org/Preservation/Landmarks/Large/199.jpg,http://sfplanninggis.org/Preservation/Landmarks/Docs/199.jpg,1907,,,3520/028A,http://sfplanninggis.org/docs/landmarks_and_districts/LM199.pdf,http://propertymap.sfplanning.org?search=3520/028A,37.771698,-122.4131915
224,"MULTIPOINT ((-122.41351099999997 37.77192900000006), (-122.41349999999994 37.771697000000074), (-122.41325799999998 37.77172800000005), (-122.41324099999997 37.771491000000026), (-122.413074 37.771581000000026), (-122.412872 37.77146700000003))",199,BLDG C:JACKSON BREWING CO. COMPLEX,1479-333 FOLSOM ST,http://sfplanninggis.org/Preservation/Landmarks/Large/199.jpg,http://sfplanninggis.org/Preservation/Landmarks/Docs/199.jpg,1907,,,3520/028A,http://sfplanninggis.org/docs/landmarks_and_districts/LM199.pdf,http://propertymap.sfplanning.org?search=3520/028A,37.771698,-122.4131915
225,"MULTIPOINT ((-122.41351099999997 37.77192900000006), (-122.41349999999994 37.771697000000074), (-122.41325799999998 37.77172800000005), (-122.41324099999997 37.771491000000026), (-122.413074 37.771581000000026), (-122.412872 37.77146700000003))",199,BLDG D: JACKSON BREWING CO. COMPLEX,315-333 11TH ST,http://sfplanninggis.org/Preservation/Landmarks/Large/199.jpg,http://sfplanninggis.org/Preservation/Landmarks/Docs/199.jpg,1907,,,3520/028A,http://sfplanninggis.org/docs/landmarks_and_districts/LM199.pdf,http://propertymap.sfplanning.org?search=3520/028A,37.771698,-122.4131915
226,"MULTIPOINT ((-122.41351099999997 37.77192900000006), (-122.41349999999994 37.771697000000074), (-122.41325799999998 37.77172800000005), (-122.41324099999997 37.771491000000026), (-122.413074 37.771581000000026), (-122.412872 37.77146700000003))",199,BLDG E: JACKSON BREWING CO. COMPLEX,333 11TH ST,http://sfplanninggis.org/Preservation/Landmarks/Large/199.jpg,http://sfplanninggis.org/Preservation/Landmarks/Docs/199.jpg,1907,,,3520/028A,http://sfplanninggis.org/docs/landmarks_and_districts/LM199.pdf,http://propertymap.sfplanning.org?search=3520/028A,37.771698,-122.4131915
227,"MULTIPOINT ((-122.41351099999997 37.77192900000006), (-122.41349999999994 37.771697000000074), (-122.41325799999998 37.77172800000005), (-122.41324099999997 37.771491000000026), (-122.413074 37.771581000000026), (-122.412872 37.77146700000003))",199,BLDG F:JACKSON BREWING CO. COMPLEX,351-333 11TH ST,http://sfplanninggis.org/Preservation/Landmarks/Large/199.jpg,http://sfplanninggis.org/Preservation/Landmarks/Docs/199.jpg,1907,,,3520/028A,http://sfplanninggis.org/docs/landmarks_and_districts/LM199.pdf,http://propertymap.sfplanning.org?search=3520/028A,37.771698,-122.4131915
228,"MULTIPOINT ((-122.41351099999997 37.77192900000006), (-122.41349999999994 37.771697000000074), (-122.41325799999998 37.77172800000005), (-122.41324099999997 37.771491000000026), (-122.413074 37.771581000000026), (-122.412872 37.77146700000003))",199,JACKSON BREWERY CO. COMPLEX,,http://sfplanninggis.org/Preservation/Landmarks/Large/199.jpg,http://sfplanninggis.org/Preservation/Landmarks/Docs/199.jpg,1907,,,3520/028A,http://sfplanninggis.org/docs/landmarks_and_districts/LM199.pdf,http://propertymap.sfplanning.org?search=3520/028A,37.771698,-122.4131915
229,MULTIPOINT ((-122.45330099999995 37.76698300000004)),201,PARK EMERGENCY HOSPITAL,811 STANYAN ST,http://sfplanninggis.org/Preservation/Landmarks/Large/201.jpg,http://sfplanninggis.org/Preservation/Landmarks/Docs/201.jpg,1902,NEWTON THARP,,1700/001,http://sfplanninggis.org/docs/landmarks_and_districts/LM201.pdf,http://propertymap.sfplanning.org?search=1700/001,37.766983,-122.453301
230,MULTIPOINT ((-122.43553699999995 37.78551100000004)),202,GOLDEN GATE COMMANDERY OF THE KNIGHTS TE,2135 SUTTER ST,http://sfplanninggis.org/Preservation/Landmarks/Large/202.jpg,http://sfplanninggis.org/Preservation/Landmarks/Docs/202.jpg,"1905, 1906-1907",O'BRIEN (MATTHEW) & WERNER (CARL),,0682/006,http://sfplanninggis.org/docs/landmarks_and_districts/LM202.pdf,http://propertymap.sfplanning.org?search=0682/006,37.785511,-122.435537
231,"MULTIPOINT ((-122.43906199999998 37.79240600000003), (-122.43889899999999 37.792193000000054))",203,GIBBS RESIDENCE AND CARETAKER'S COTTAGE,2622-2624 JACKSON ST,http://sfplanninggis.org/Preservation/Landmarks/Docs/SAMPLE_PHOTO.jpg,http://sfplanninggis.org/Preservation/Landmarks/Docs/SAMPLE_PHOTO.jpg,1895,WILLIS POLK,,0585/008,http://sfplanninggis.org/docs/landmarks_and_districts/LM203.pdf,http://propertymap.sfplanning.org?search=0585/008,37.7922995,-122.4389805
232,"MULTIPOINT ((-122.43906199999998 37.79240600000003), (-122.43889899999999 37.792193000000054))",203,GIBBS RESIDENCE AND CARETAKERS COTTAGE,2629-2624 PACIFIC ST,http://sfplanninggis.org/Preservation/Landmarks/Docs/SAMPLE_PHOTO.jpg,http://sfplanninggis.org/Preservation/Landmarks/Docs/SAMPLE_PHOTO.jpg,1895,WILLIS POLK,,0585/008,http://sfplanninggis.org/docs/landmarks_and_districts/LM203.pdf,http://propertymap.sfplanning.org?search=0585/008,37.7922995,-122.4389805
233,MULTIPOINT ((-122.41237499999994 37.79747500000008)),204,OUR LADY OF GUADALUPE CHURCH,908 BROADWAY,http://sfplanninggis.org/Preservation/Landmarks/Large/204.jpg,http://sfplanninggis.org/Preservation/Landmarks/Docs/204.jpg,1912,SHEA (FRANK T.) & LOFQUIST (JOHN D.),,0149/009,http://sfplanninggis.org/docs/landmarks_and_districts/LM204.pdf,http://propertymap.sfplanning.org?search=0149/009,37.797475,-122.412375
234,MULTIPOINT ((-122.441397 37.72114400000004)),205,BALBOA HIGH SCHOOL,1000 CAYUGA AV,http://sfplanninggis.org/Preservation/Landmarks/Large/205.jpg,http://sfplanninggis.org/Preservation/Landmarks/Docs/205.jpg,1930-31,SAMUEL LIGHTNER HYMAN AND A. APPLETON ASSOCIATES,,6958A/001,http://sfplanninggis.org/docs/landmarks_and_districts/LM205.pdf,http://propertymap.sfplanning.org?search=6958A/001,37.721144,-122.441397
235,MULTIPOINT ((-122.41563899999994 37.74945800000006)),206,HOWARD /26TH STREET COTTAGES,3274-3294 26TH STREET,http://sfplanninggis.org/Preservation/Landmarks/Large/206.jpg,http://sfplanninggis.org/Preservation/Landmarks/Docs/206.jpg,1905,,,6526/013,http://sfplanninggis.org/docs/landmarks_and_districts/LM206.pdf,http://propertymap.sfplanning.org?search=6526/013,37.749458,-122.415639
236,MULTIPOINT ((-122.44093699999996 37.792287000000044)),207,ELLINWOOD HOUSE,2799 PACIFIC AV,http://sfplanninggis.org/Preservation/Landmarks/Large/207.jpg,http://sfplanninggis.org/Preservation/Landmarks/Docs/207.jpg,1893-94,J. EUGENE FREEMAN,,0978/010,http://sfplanninggis.org/docs/landmarks_and_districts/LM207.pdf,http://propertymap.sfplanning.org?search=0978/010,37.792287,-122.440937
237,MULTIPOINT ((-122.43622699999997 37.76271800000006)),208,THE MCCORMICK HOUSE,4040-4042 17TH ST,http://sfplanninggis.org/Preservation/Landmarks/Large/208.jpg,http://sfplanninggis.org/Preservation/Landmarks/Docs/208.jpg,,,,2623/012,http://sfplanninggis.org/docs/landmarks_and_districts/LM208.pdf,http://propertymap.sfplanning.org?search=2623/012,37.762718,-122.436227
238,"MULTIPOINT ((-122.45707699999997 37.78061500000007), (-122.45697499999994 37.78037000000006))",209,SAN FRANCISCO MEMORIAL COLUMBARIUM,1 LORAINE CT,http://sfplanninggis.org/Preservation/Landmarks/Large/209.jpg,http://sfplanninggis.org/Preservation/Landmarks/Docs/209.jpg,,,,1132/001,http://sfplanninggis.org/docs/landmarks_and_districts/LM209.pdf,http://propertymap.sfplanning.org?search=1132/001,37.7804925,-122.457026
239,"MULTIPOINT ((-122.45707699999997 37.78061500000007), (-122.45697499999994 37.78037000000006))",209,SEE 1084/2:ODDFELLOWS COLUMBARIUM,1 LORAINE CT,http://sfplanninggis.org/Preservation/Landmarks/Large/209.jpg,http://sfplanninggis.org/Preservation/Landmarks/Docs/209.jpg,,,,1132/001,http://sfplanninggis.org/docs/landmarks_and_districts/LM209.pdf,http://propertymap.sfplanning.org?search=1132/001,37.7804925,-122.457026
240,"MULTIPOINT ((-122.50854699999996 37.76583800000003), (-122.50846899999999 37.76536800000008))",210,MURPHY'S MILLWRIGHT HOUSE,M.L.KING DRIVE,http://sfplanninggis.org/Preservation/Landmarks/Large/210.jpg,http://sfplanninggis.org/Preservation/Landmarks/Docs/210.jpg,1906,,,1700/001,http://sfplanninggis.org/docs/landmarks_and_districts/LM210.pdf,http://propertymap.sfplanning.org?search=1700/001,37.765603,-122.508508
241,"MULTIPOINT ((-122.50854699999996 37.76583800000003), (-122.50846899999999 37.76536800000008))",210,MURPHY WINDMILL (SOUTH WINDMILL),GOLDEN GATE PARK,http://sfplanninggis.org/Preservation/Landmarks/Large/210.jpg,http://sfplanninggis.org/Preservation/Landmarks/Docs/210.jpg,1906,,,1700/001,http://sfplanninggis.org/docs/landmarks_and_districts/LM210.pdf,http://propertymap.sfplanning.org?search=1700/001,37.765603,-122.508508
242,MULTIPOINT ((-122.42988999999994 37.78871400000003)),211,MADAME C J WALKER HOUSE,2066 PINE ST,http://sfplanninggis.org/Preservation/Landmarks/Large/211.jpg,http://sfplanninggis.org/Preservation/Landmarks/Docs/211.jpg,1876,,,0651/008,http://sfplanninggis.org/docs/landmarks_and_districts/LM211.pdf,http://propertymap.sfplanning.org?search=0651/008,37.788714,-122.42989
243,MULTIPOINT ((-122.40290999999996 37.795777000000044)),212,,15 HOTALING PL,http://sfplanninggis.org/Preservation/Landmarks/Large/212.jpg,http://sfplanninggis.org/Preservation/Landmarks/Docs/212.jpg,1907,,,0196/028,http://sfplanninggis.org/docs/landmarks_and_districts/LM212.pdf,http://propertymap.sfplanning.org?search=0196/028,37.795777,-122.40291
244,MULTIPOINT ((-122.40290999999996 37.795777000000044)),212,,534-15 WASHINGTON ST,http://sfplanninggis.org/Preservation/Landmarks/Large/212.jpg,http://sfplanninggis.org/Preservation/Landmarks/Docs/212.jpg,1907,,,0196/028,http://sfplanninggis.org/docs/landmarks_and_districts/LM212.pdf,http://propertymap.sfplanning.org?search=0196/028,37.795777,-122.40291
245,MULTIPOINT ((-122.40290999999996 37.795777000000044)),212,,580-15 WASHINGTON ST,http://sfplanninggis.org/Preservation/Landmarks/Large/212.jpg,http://sfplanninggis.org/Preservation/Landmarks/Docs/212.jpg,1907,,,0196/028,http://sfplanninggis.org/docs/landmarks_and_districts/LM212.pdf,http://propertymap.sfplanning.org?search=0196/028,37.795777,-122.40291
246,MULTIPOINT ((-122.40290999999996 37.795777000000044)),212,COLUMBIA SAVINGS BANK,700-15 MONTGOMERY ST,http://sfplanninggis.org/Preservation/Landmarks/Large/212.jpg,http://sfplanninggis.org/Preservation/Landmarks/Docs/212.jpg,1907,,,0196/028,http://sfplanninggis.org/docs/landmarks_and_districts/LM212.pdf,http://propertymap.sfplanning.org?search=0196/028,37.795777,-122.40291
247,MULTIPOINT ((-122.46888399999995 37.72714600000006)),213,THE JOSEPH LEONARD/CECIL F. POOLE HOUSE,90 CEDRO AV,http://sfplanninggis.org/Preservation/Landmarks/Large/213.jpg,http://sfplanninggis.org/Preservation/Landmarks/Docs/213.jpg,,,,6908/016,http://sfplanninggis.org/docs/landmarks_and_districts/LM213.pdf,http://propertymap.sfplanning.org?search=6908/016,37.727146,-122.468884
248,MULTIPOINT ((-122.41854399999994 37.759240000000034)),214,EL CAPITAN THEATER & HOTEL,2353 MISSION ST,http://sfplanninggis.org/Preservation/Landmarks/Large/214.jpg,http://sfplanninggis.org/Preservation/Landmarks/Docs/214.jpg,1928,WILLIAM H. CRIM,,3595/024,http://sfplanninggis.org/docs/landmarks_and_districts/LM214.pdf,http://propertymap.sfplanning.org?search=3595/024,37.75924,-122.418544
250,MULTIPOINT ((-122.44565699999998 37.785807000000034)),216,HOADLEY RESIDENCE,2908-2910 BUSH ST,http://sfplanninggis.org/Preservation/Landmarks/Large/216.jpg,http://sfplanninggis.org/Preservation/Landmarks/Docs/216.jpg,1854-58,,,1046/013,http://sfplanninggis.org/docs/landmarks_and_districts/LM216.pdf,http://propertymap.sfplanning.org?search=1046/013,37.785807,-122.445657
251,MULTIPOINT ((-122.42186199999998 37.79834100000005)),217,ALHAMBRA THEATER,2320-2336 POLK ST,http://sfplanninggis.org/Preservation/Landmarks/Large/217.jpg,http://sfplanninggis.org/Preservation/Landmarks/Docs/217.jpg,1926,TIMOTHY L. PFLEUGER,,0548/022,http://sfplanninggis.org/docs/landmarks_and_districts/LM217.pdf,http://propertymap.sfplanning.org?search=0548/022,37.798341,-122.421862
252,MULTIPOINT ((-122.44026399999996 37.79813000000007)),218,NORTH END POLICE STATION,2475 GREENWICH ST,http://sfplanninggis.org/Preservation/Landmarks/Large/218.jpg,http://sfplanninggis.org/Preservation/Landmarks/Docs/218.jpg,1912,"COFFEY, ALFRED I.;FREDERICK MEYER;JOHN REID, JR.",,0513/015,http://sfplanninggis.org/docs/landmarks_and_districts/LM218.pdf,http://propertymap.sfplanning.org?search=0513/015,37.79813,-122.440264
253,MULTIPOINT ((-122.41695899999996 37.79871300000008)),220,ENGINE COMPANY NUMBER 31 FIRE HOUSE,1088 GREEN ST,http://sfplanninggis.org/Preservation/Landmarks/Large/220.jpg,http://sfplanninggis.org/Preservation/Landmarks/Docs/220.jpg,1908,NEWTON J. THARP,,0121/010,http://sfplanninggis.org/docs/landmarks_and_districts/LM220.pdf,http://propertymap.sfplanning.org?search=0121/010,37.798713,-122.416959
254,MULTIPOINT ((-122.47716999999994 37.75727400000005)),221,SHRINERS' HOSPITAL FOR CRIPPLED CHILDREN,1701 19TH AV,http://sfplanninggis.org/Preservation/Landmarks/Large/221.jpg,http://sfplanninggis.org/Preservation/Landmarks/Docs/221.jpg,1922-23;1970,WEEKS AND DAY,,1924/047,http://sfplanninggis.org/docs/landmarks_and_districts/LM221.pdf,http://propertymap.sfplanning.org?search=1924/047,37.757274,-122.47717
255,MULTIPOINT ((-122.42402799999996 37.77177800000004)),223,CARMEL FALLON BUILDING,1800-1806 MARKET ST,http://sfplanninggis.org/Preservation/Landmarks/Large/223.jpg,http://sfplanninggis.org/Preservation/Landmarks/Docs/223.jpg,1894,EDWARD D. GOODRICH,,0871/014,http://sfplanninggis.org/docs/landmarks_and_districts/LM223.pdf,http://propertymap.sfplanning.org?search=0871/014,37.771778,-122.424028
256,MULTIPOINT ((-122.42954399999996 37.79375500000003)),224,SCHUBERT HALL,2099 PACIFIC AV,http://sfplanninggis.org/Preservation/Landmarks/Large/224.jpg,http://sfplanninggis.org/Preservation/Landmarks/Docs/224.jpg,,,,0591/023,http://sfplanninggis.org/docs/landmarks_and_districts/LM224.pdf,http://propertymap.sfplanning.org?search=0591/023,37.793755,-122.429544
257,MULTIPOINT ((-122.38846199999995 37.79020600000007)),225,FIRE BOAT HOUSE-PIER 22 1/2,THE EMBARCADERO,http://sfplanninggis.org/Preservation/Landmarks/Large/225.jpg,http://sfplanninggis.org/Preservation/Landmarks/Docs/225.jpg,,,,9900/022H,http://sfplanninggis.org/docs/landmarks_and_districts/LM225.pdf,http://propertymap.sfplanning.org?search=9900/022H,37.790206,-122.388462
258,MULTIPOINT ((-122.41000899999995 37.800850000000025)),226,SURVEY MARKER,1651 STOCKTON ST,http://sfplanninggis.org/Preservation/Landmarks/Large/226.jpg,http://sfplanninggis.org/Preservation/Landmarks/Docs/226.jpg,1849,HALPRIN & DAVIS (FIRM),,0102/001,http://sfplanninggis.org/docs/landmarks_and_districts/LM226.pdf,http://propertymap.sfplanning.org?search=0102/001,37.80085,-122.410009
259,MULTIPOINT ((-122.41000899999995 37.800850000000025)),226,WASHINGTON SQUARE,FILBERT ST,http://sfplanninggis.org/Preservation/Landmarks/Large/226.jpg,http://sfplanninggis.org/Preservation/Landmarks/Docs/226.jpg,1849,HALPRIN & DAVIS (FIRM),,0102/001,http://sfplanninggis.org/docs/landmarks_and_districts/LM226.pdf,http://propertymap.sfplanning.org?search=0102/001,37.80085,-122.410009
260,MULTIPOINT ((-122.43453499999998 37.75977500000005)),227,CASTRO CAMERA,573-575 CASTRO ST,http://sfplanninggis.org/Preservation/Landmarks/Large/227.jpg,http://sfplanninggis.org/Preservation/Landmarks/Docs/227.jpg,1900,,,3583/061,http://sfplanninggis.org/docs/landmarks_and_districts/LM227.pdf,http://propertymap.sfplanning.org?search=3583/061,37.759775,-122.434535
261,MULTIPOINT ((-122.40657899999997 37.79760100000004)),228,CITY LIGHTS BOOKSTORE,261-271 COLUMBUS AV,http://sfplanninggis.org/Preservation/Landmarks/Large/228.jpg,http://sfplanninggis.org/Preservation/Landmarks/Docs/228.jpg,1913;1918,ITALO SANOLINI (1918),,0162/018,http://sfplanninggis.org/docs/landmarks_and_districts/LM228.pdf,http://propertymap.sfplanning.org?search=0162/018,37.797601,-122.406579
262,MULTIPOINT ((-122.39070999999996 37.77950700000008)),229,GARCIA AND MAGGINI WAREHOUSE,128 KING ST,http://sfplanninggis.org/Preservation/Landmarks/Large/229.jpg,http://sfplanninggis.org/Preservation/Landmarks/Docs/229.jpg,1913,ALVIN E. HORNLEIN  (ENGINEER),,3794/023,http://sfplanninggis.org/docs/landmarks_and_districts/LM229.pdf,http://propertymap.sfplanning.org?search=3794/023,37.779507,-122.39071
263,MULTIPOINT ((-122.459319 37.74786500000005)),231,FOREST HILL MUNI STATION,390 LAGUNA HONDA BL,http://sfplanninggis.org/Preservation/Landmarks/Large/231.jpg,http://sfplanninggis.org/Preservation/Landmarks/Docs/231.jpg,,,,2864/050,http://sfplanninggis.org/docs/landmarks_and_districts/LM231.pdf,http://propertymap.sfplanning.org?search=2864/050,37.747865,-122.459319
264,MULTIPOINT ((-122.42150399999997 37.80011100000007)),232,FILBERT STREET COTTAGES,1338 FILBERT ST,http://sfplanninggis.org/Preservation/Landmarks/Large/232.jpg,http://sfplanninggis.org/Preservation/Landmarks/Docs/232.jpg,,,,0524/031,http://sfplanninggis.org/docs/landmarks_and_districts/LM232.pdf,http://propertymap.sfplanning.org?search=0524/031,37.800111,-122.421504
265,MULTIPOINT ((-122.41984099999996 37.75197200000008)),234,MISSION BRANCH LIBRARY,3359 24TH ST,http://sfplanninggis.org/Preservation/Landmarks/Large/234.jpg,http://sfplanninggis.org/Preservation/Landmarks/Docs/234.jpg,1915,G. ALBERT LANSBURGH,,6515/001,http://sfplanninggis.org/docs/landmarks_and_districts/LM234.pdf,http://propertymap.sfplanning.org?search=6515/001,37.751972,-122.419841
266,MULTIPOINT ((-122.41018199999996 37.79522600000007)),235,CHINATOWN BRANCH LIBRARY,1135 POWELL AV,http://sfplanninggis.org/Preservation/Landmarks/Large/235.jpg,http://sfplanninggis.org/Preservation/Landmarks/Docs/235.jpg,1920,G. ALBERT LANSBURGH,,0191/004,http://sfplanninggis.org/docs/landmarks_and_districts/LM235.pdf,http://propertymap.sfplanning.org?search=0191/004,37.795226,-122.410182
267,MULTIPOINT ((-122.40720299999998 37.78274300000004)),236,THE OLD MINT,88 05TH ST,http://sfplanninggis.org/Preservation/Landmarks/Large/236.jpg,http://sfplanninggis.org/Preservation/Landmarks/Docs/236.jpg,1869-1874,ALFRED B. MULLET,,3704/011,http://sfplanninggis.org/docs/landmarks_and_districts/LM236.pdf,http://propertymap.sfplanning.org?search=3704/011,37.782743,-122.407203
268,MULTIPOINT ((-122.40385599999996 37.79566700000004)),237,COLUMBO BUILDING,1-33 COLUMBUS AV,http://sfplanninggis.org/Preservation/Landmarks/Docs/SAMPLE_PHOTO.jpg,http://sfplanninggis.org/Preservation/Landmarks/Docs/SAMPLE_PHOTO.jpg,1913,REID BROTHERS,,0195/004,http://sfplanninggis.org/docs/landmarks_and_districts/LM237.pdf,http://propertymap.sfplanning.org?search=0195/004,37.795667,-122.403856
269,MULTIPOINT ((-122.41823899999997 37.76537200000007)),238,SAN FRANCISCO LABOR TEMPLE,2940-2944 16TH ST,http://sfplanninggis.org/Preservation/Landmarks/Large/238.jpg,http://sfplanninggis.org/Preservation/Landmarks/Docs/238.jpg,1914,"O' BRIEN, MATHEW",,3553/014,http://sfplanninggis.org/docs/landmarks_and_districts/LM238.pdf,http://propertymap.sfplanning.org?search=3553/014,37.765372,-122.418239
270,MULTIPOINT ((-122.47654099999994 37.76296700000006)),239,SUNSET BRANCH LIBRARY,1301 18TH AV,http://sfplanninggis.org/Preservation/Landmarks/Large/239.jpg,http://sfplanninggis.org/Preservation/Landmarks/Docs/239.jpg,1917,LANDSBURGH; C. ALBERT,,1773/001,http://sfplanninggis.org/docs/landmarks_and_districts/LM239.pdf,http://propertymap.sfplanning.org?search=1773/001,37.762967,-122.476541
271,MULTIPOINT ((-122.47654099999994 37.76296700000006)),239,SUNSET BRANCH; CARNEGIE LIBRARY,1305 18TH AV,http://sfplanninggis.org/Preservation/Landmarks/Large/239.jpg,http://sfplanninggis.org/Preservation/Landmarks/Docs/239.jpg,1917,LANDSBURGH; C. ALBERT,,1773/001,http://sfplanninggis.org/docs/landmarks_and_districts/LM239.pdf,http://propertymap.sfplanning.org?search=1773/001,37.762967,-122.476541
272,MULTIPOINT ((-122.44485199999997 37.78891100000004)),240,PRESIDIO BRANCH LIBRARY,3150 SACRAMENTO ST,http://sfplanninggis.org/Preservation/Landmarks/Large/240.jpg,http://sfplanninggis.org/Preservation/Landmarks/Docs/240.jpg,1921,G. ALBERT LANSBURGH,,1006/012,http://sfplanninggis.org/docs/landmarks_and_districts/LM240.pdf,http://propertymap.sfplanning.org?search=1006/012,37.788911,-122.444852
273,MULTIPOINT ((-122.43463799999995 37.76342800000003)),241,THE JOSE THEATER/NAMES PROJECT BUILDING,2362 MARKET ST,http://sfplanninggis.org/Preservation/Landmarks/Large/241.jpg,http://sfplanninggis.org/Preservation/Landmarks/Docs/241.jpg,,,,3562/011,http://sfplanninggis.org/docs/landmarks_and_districts/LM241.pdf,http://propertymap.sfplanning.org?search=3562/011,37.763428,-122.434638
274,MULTIPOINT ((-122.47682799999995 37.75198700000004)),242,S.F CONSERVATORY OF MUSIC,1201 ORTEGA ST,http://sfplanninggis.org/Preservation/Landmarks/Large/242.jpg,http://sfplanninggis.org/Preservation/Landmarks/Docs/242.jpg,1928,LOUIS CHRISTIAN MULLGARDT,,2115/037,http://sfplanninggis.org/docs/landmarks_and_districts/LM242.pdf,http://propertymap.sfplanning.org?search=2115/037,37.751987,-122.476828
275,MULTIPOINT ((-122.40323199999995 37.78824800000007)),243,CHRONICLE BUILDING,690 MARKET ST,http://sfplanninggis.org/Preservation/Landmarks/Large/243.jpg,http://sfplanninggis.org/Preservation/Landmarks/Docs/243.jpg,1890,,,0311/057,http://sfplanninggis.org/docs/landmarks_and_districts/LM243.pdf,http://propertymap.sfplanning.org?search=0311/057,37.788248,-122.403232
276,MULTIPOINT ((-122.40891399999998 37.78388700000005)),244,DRESSLER OR GARFIELD BUILDING,938-942 MARKET ST,http://sfplanninggis.org/Preservation/Landmarks/Large/244.jpg,http://sfplanninggis.org/Preservation/Landmarks/Docs/244.jpg,1908,REID BROTHERS,,0341/017,http://sfplanninggis.org/docs/landmarks_and_districts/LM244.pdf,http://propertymap.sfplanning.org?search=0341/017,37.783887,-122.408914
277,MULTIPOINT ((-122.41940699999998 37.75601900000004)),245,THE NEW MISSION THEATER,2550 MISSION ST,http://sfplanninggis.org/Preservation/Landmarks/Large/245.jpg,http://sfplanninggis.org/Preservation/Landmarks/Docs/245.jpg,,,,3616/007,http://sfplanninggis.org/docs/landmarks_and_districts/LM245.pdf,http://propertymap.sfplanning.org?search=3616/007,37.756019,-122.419407
278,MULTIPOINT ((-122.41468499999996 37.774677000000054)),246,LICK BATHS,165 10TH ST,http://sfplanninggis.org/Preservation/Landmarks/Large/246.jpg,http://sfplanninggis.org/Preservation/Landmarks/Docs/246.jpg,1890,J.W. DOLLIVER,,3509/014,http://sfplanninggis.org/docs/landmarks_and_districts/LM246.pdf,http://propertymap.sfplanning.org?search=3509/014,37.774677,-122.414685
279,MULTIPOINT ((-122.468099 37.781844000000035)),247,RICHMOND BRANCH LIBRARY,351-359 9TH AV,http://sfplanninggis.org/Preservation/Landmarks/Large/247.jpg,http://sfplanninggis.org/Preservation/Landmarks/Docs/247.jpg,1914,BLISS & FAVILLE,,1441/007,http://sfplanninggis.org/docs/landmarks_and_districts/LM247.pdf,http://propertymap.sfplanning.org?search=1441/007,37.781844,-122.468099
280,MULTIPOINT ((-122.42063199999996 37.77085200000005)),248,JUVENILE COURT AND DETENTION CENTER,150 OTIS ST,http://sfplanninggis.org/Preservation/Landmarks/Large/248.jpg,http://sfplanninggis.org/Preservation/Landmarks/Docs/248.jpg,1914,LOUIS C. MULLGARDT,,3513/208,http://sfplanninggis.org/docs/landmarks_and_districts/LM248.pdf,http://propertymap.sfplanning.org?search=3513/208,37.770852,-122.420632
281,MULTIPOINT ((-122.46852099999995 37.76988400000005)),249,MUSIC CONCOURSE,MUSIC CONCOURSE,http://sfplanninggis.org/Preservation/Landmarks/Large/249.jpg,http://sfplanninggis.org/Preservation/Landmarks/Docs/249.jpg,1896-1928,Reid Brothers,,1700/001,http://sfplanninggis.org/docs/landmarks_and_districts/LM249.pdf,http://propertymap.sfplanning.org?search=1700/001,37.769884,-122.468521
282,MULTIPOINT ((-122.37572699999998 37.732241000000045)),250,,900 INNES AV,http://sfplanninggis.org/Preservation/Landmarks/Large/250.jpg,http://sfplanninggis.org/Preservation/Landmarks/Docs/250.jpg,1900(?),,,4646/003,http://sfplanninggis.org/docs/landmarks_and_districts/LM250.pdf,http://propertymap.sfplanning.org?search=4646/003,37.732241,-122.375727
283,MULTIPOINT ((-122.41244499999999 37.79280600000004)),251,,1110 TAYLOR ST,http://sfplanninggis.org/Preservation/Landmarks/Docs/SAMPLE_PHOTO.jpg,http://sfplanninggis.org/Preservation/Landmarks/Docs/SAMPLE_PHOTO.jpg,1906 OR BEFORE,,,0222/018,http://sfplanninggis.org/docs/landmarks_and_districts/LM251.pdf,http://propertymap.sfplanning.org?search=0222/018,37.792806,-122.412445
284,MULTIPOINT ((-122.42386599999998 37.79538000000008)),252,ST. BRIGID'S CHURCH,2151 VAN NESS AV,http://sfplanninggis.org/Preservation/Landmarks/Large/252.jpg,http://sfplanninggis.org/Preservation/Landmarks/Docs/252.jpg,1897;1906,SHEA & SHEA;H.A. MINTON,,0575/015,http://sfplanninggis.org/docs/landmarks_and_districts/LM252.pdf,http://propertymap.sfplanning.org?search=0575/015,37.79538,-122.423866
285,MULTIPOINT ((-122.44724999999994 37.77010800000005)),253,RICHARD DOOLAN/NORMAN LARSON RESIDENCE,557 ASHBURY ST,http://sfplanninggis.org/Preservation/Landmarks/Large/253.jpg,http://sfplanninggis.org/Preservation/Landmarks/Docs/253.jpg,,,,1231/009,http://sfplanninggis.org/docs/landmarks_and_districts/LM253.pdf,http://propertymap.sfplanning.org?search=1231/009,37.770108,-122.44725
286,MULTIPOINT ((-122.50297999999998 37.73546300000004)),254,DOGGIE DINER SIGN,SLOAT @ 45TH BL,http://sfplanninggis.org/Preservation/Landmarks/Large/254.jpg,http://sfplanninggis.org/Preservation/Landmarks/Docs/254.jpg,1966,,Harold Bachman,n/a,http://sfplanninggis.org/docs/landmarks_and_districts/LM254.pdf,http://propertymap.sfplanning.org?search=37.73546+-122.50294,37.735463,-122.50298
287,MULTIPOINT ((-122.42730599999999 37.762019000000066)),255,MISSION HIGH SCHOOL,,http://sfplanninggis.org/Preservation/Landmarks/Large/255.jpg,http://sfplanninggis.org/Preservation/Landmarks/Docs/255.jpg,,,,3579/006,http://sfplanninggis.org/docs/landmarks_and_districts/LM255.pdf,http://propertymap.sfplanning.org?search=3579/006,37.762019,-122.427306
288,MULTIPOINT ((-122.425592 37.77133800000007)),257,Richardson Hall,101 WEBSTER ST,http://sfplanninggis.org/Preservation/Landmarks/Large/257.jpg,http://sfplanninggis.org/Preservation/Landmarks/Docs/257.jpg,,,,0870/001,http://sfplanninggis.org/docs/landmarks_and_districts/LM257.pdf,http://propertymap.sfplanning.org?search=0870/001,37.771338,-122.425592
289,MULTIPOINT ((-122.42627899999997 37.772350000000074)),258,SAN FRANCISCO STATE TEACHERS' COLLEGE,218 BUCHANAN ST,http://sfplanninggis.org/Preservation/Landmarks/Large/258.jpg,http://sfplanninggis.org/Preservation/Landmarks/Docs/258.jpg,1927;1935-6,GEORGE B. MCDOUGALL,,0857/001,http://sfplanninggis.org/docs/landmarks_and_districts/LM258.pdf,http://propertymap.sfplanning.org?search=0857/001,37.77235,-122.426279
290,"MULTIPOINT ((-122.43508899999995 37.75018400000005), (-122.42619399999995 37.77193100000005))",259,NOE VALLEY BRANCH LIBRARY,451 JERSEY ST,http://sfplanninggis.org/Preservation/Landmarks/Large/259.jpg,http://sfplanninggis.org/Preservation/Landmarks/Docs/259.jpg,,,,0857/001A,http://sfplanninggis.org/docs/landmarks_and_districts/LM259.pdf,http://propertymap.sfplanning.org?search=0857/001A,37.7610575,-122.4306415
291,"MULTIPOINT ((-122.43508899999995 37.75018400000005), (-122.42619399999995 37.77193100000005))",259,Woods Hall Annex,220 BUCHANAN ST,http://sfplanninggis.org/Preservation/Landmarks/Large/259.jpg,http://sfplanninggis.org/Preservation/Landmarks/Docs/259.jpg,,,,0857/001A,http://sfplanninggis.org/docs/landmarks_and_districts/LM259.pdf,http://propertymap.sfplanning.org?search=0857/001A,37.7610575,-122.4306415
292,MULTIPOINT ((-122.42664799999994 37.789510000000064)),260,TOBIN HOUSE,1969 CALIFORNIA ST,http://sfplanninggis.org/Preservation/Landmarks/Large/260.jpg,http://sfplanninggis.org/Preservation/Landmarks/Docs/260.jpg,1915,WILLIS POLK,,0649/016,http://sfplanninggis.org/docs/landmarks_and_districts/LM260.pdf,http://propertymap.sfplanning.org?search=0649/016,37.78951,-122.426648
293,MULTIPOINT ((-122.43307099999998 37.797113000000024)),261,METRO THEATER,2055 UNION ST,http://sfplanninggis.org/Preservation/Landmarks/Large/261.jpg,http://sfplanninggis.org/Preservation/Landmarks/Docs/261.jpg,1924,"Timothy L. Pflueger, Merrit Reid, James Reid",,0541/018,http://sfplanninggis.org/docs/landmarks_and_districts/LM261.pdf,http://propertymap.sfplanning.org?search=0541/018,37.797113,-122.433071
294,MULTIPOINT ((-122.43315299999995 37.80204900000007)),262,MARINA BRANCH LIBRARY,1890 CHESTNUT ST,http://sfplanninggis.org/Preservation/Landmarks/Large/262.jpg,http://sfplanninggis.org/Preservation/Landmarks/Docs/262.jpg,1953,Appleton & Wolfard,,0469/001,http://sfplanninggis.org/docs/landmarks_and_districts/LM262.pdf,http://propertymap.sfplanning.org?search=0469/001,37.802049,-122.433153
295,MULTIPOINT ((-122.38886099999996 37.741058000000066)),263,SAM JORDAN'S BAR,4004 3RD ST,http://sfplanninggis.org/Preservation/Landmarks/Large/263.jpg,http://sfplanninggis.org/Preservation/Landmarks/Docs/263.jpg,c.1883,,,5253/030,http://sfplanninggis.org/docs/landmarks_and_districts/LM263.pdf,http://propertymap.sfplanning.org?search=5253/030,37.741058,-122.388861
296,MULTIPOINT ((-122.43494399999997 37.76226500000007)),264,Twin Peaks Tavern,401 CASTRO ST,http://sfplanninggis.org/Preservation/Landmarks/Large/264.jpg,http://sfplanninggis.org/Preservation/Landmarks/Docs/264.jpg,1923,Julius Levy,,3582/071,http://sfplanninggis.org/docs/landmarks_and_districts/LM264.pdf,http://propertymap.sfplanning.org?search=3582/071,37.762265,-122.434944
297,MULTIPOINT ((-122.46566299999995 37.762451000000056)),265,DOELGER BUILDING,320-326 JUDAH ST,http://sfplanninggis.org/Preservation/Landmarks/Large/265.jpg,http://sfplanninggis.org/Preservation/Landmarks/Docs/265.jpg,1932,C. O. Clausen.,,1762/020,http://sfplanninggis.org/docs/landmarks_and_districts/LM265.pdf,http://propertymap.sfplanning.org?search=1762/020,37.762451,-122.465663
298,MULTIPOINT ((-122.43286899999998 37.785480000000064)),266,Marcus Books and Jimbo's Bop City,1712-1716 FILLMORE ST,http://sfplanninggis.org/Preservation/Landmarks/Large/266.jpg,http://sfplanninggis.org/Preservation/Landmarks/Docs/266.jpg,1893,,,0684/020,http://sfplanninggis.org/docs/landmarks_and_districts/LM266.pdf,http://propertymap.sfplanning.org?search=0684/020,37.78548,-122.432869
299,MULTIPOINT ((-122.43047999999999 37.76665000000003)),267,SWEDISH AMERICAN HALL,,http://sfplanninggis.org/Preservation/Landmarks/Large/267.jpg,http://sfplanninggis.org/Preservation/Landmarks/Docs/267.jpg,1907,,,3542/017,http://sfplanninggis.org/docs/landmarks_and_districts/LM267.pdf,http://propertymap.sfplanning.org?search=3542/017,37.76665,-122.43048
300,MULTIPOINT ((-122.42238999999995 37.77489000000003)),268,R.(RUBE) L. GOLDBERG BUILDING,,http://sfplanninggis.org/Preservation/Landmarks/Large/268.jpg,http://sfplanninggis.org/Preservation/Landmarks/Docs/268.jpg,1911,,,0837/014,http://sfplanninggis.org/docs/landmarks_and_districts/LM268.pdf,http://propertymap.sfplanning.org?search=0837/014,37.77489,-122.42239
301,MULTIPOINT ((-122.41417830799998 37.72550826400004)),269,UNIVERSITY MOUND OLD LADIES HOME,350 University St,http://sfplanninggis.org/Preservation/Landmarks/Large/269.jpg,http://sfplanninggis.org/Preservation/Landmarks/Docs/269.jpg,1931-1932,Martin J. Rist and Alfred I. Coffey,,5992/001,http://sfplanninggis.org/docs/landmarks_and_districts/LM269.pdf,http://propertymap.sfplanning.org?search=5992/001,37.725508264,-122.414178308
302,MULTIPOINT ((-122.46516599999995 37.746683258000076)),270,THE COWELL HOUSE,171 SAN MARCOS AVE,http://sfplanninggis.org/Preservation/Landmarks/Large/270.jpg,http://sfplanninggis.org/Preservation/Landmarks/Docs/270.jpg,1933,Morrow and Morrow,,2882/035,http://sfplanninggis.org/docs/landmarks_and_districts/LM270.pdf,http://propertymap.sfplanning.org?search=2882/035,37.746683258,-122.465166
303,MULTIPOINT ((-122.40010036499996 37.78804676500005)),271,THE BOURDETTE BUILDING,90-92 2nd St,http://sfplanninggis.org/Preservation/Landmarks/Large/271.jpg,http://sfplanninggis.org/Preservation/Landmarks/Docs/271.jpg,1903-1904,Bliss and Faville,,3707012,http://sfplanninggis.org/docs/landmarks_and_districts/LM271.pdf,http://propertymap.sfplanning.org?search=0837/014,37.788046765,-122.400100365
304,MULTIPOINT ((-122.43842451399996 37.72136512800006)),272,Alemany Emergency Hospital and Health Center,35-45 Onondaga Avenue,http://sfplanninggis.org/Preservation/Landmarks/Large/272.jpg,http://sfplanninggis.org/Preservation/Landmarks/Docs/272.jpg,1933,Charles H. Sawyer,,6959/016&017,http://sfplanninggis.org/docs/landmarks_and_districts/LM272.pdf,http://propertymap.sfplanning.org?search=6959/016,37.721365128,-122.438424514
307,MULTIPOINT ((-122.45688381199994 37.72381689100007)),273,Ingleside Presbyterian Church and the Great Cloud of Witnesses,1345 Ocean Ave,http://sfplanninggis.org/Preservation/Landmarks/Large/273.jpg,http://sfplanninggis.org/Preservation/Landmarks/Large/273.jpg,1923,Joseph A. Leonard,,6942/050,http://sfplanninggis.org/docs/landmarks_and_districts/LM273.pdf,http://propertymap.sfplanning.org?search=6942/050,37.7238,-122.4569
